{"type": "Feature","id": "5049","bbox": [-23.64796,15.03934,-23.57848,15.10578],"geometry": {"type": "Polygon","coordinates": [[[-23.57998,15.08156,212.8995],[-23.57848,15.08806,367.6131],[-23.58069,15.09803,250.2536],[-23.60726,15.10356,272.0134],[-23.61834,15.10578,250.2311],[-23.64189,15.08734,352.5633],[-23.64796,15.08188,544.9313],[-23.64432,15.06305,850.4938],[-23.63703,15.04908,1185.0948],[-23.62941,15.03934,978.147],[-23.61204,15.04092,604.2704],[-23.60505,15.04155,507.7309],[-23.58512,15.05595,316.4062],[-23.5818,15.07367,278.8636],[-23.57998,15.08156,212.8995]]]}
,"properties": {"ISO3166-1-Alpha-3": "CPV","country": "Cape Verde","fill": "#00F","name": "São Salvador do Mundo","area_km2": 40.37226,"hist_schema_id": "Elevation0-9000","hist_area_km2": {"150": 0.04094,"175": 0.28659,"200": 0.96215,"225": 1.43302,"250": 1.84246,"275": 2.21097,"300": 2.41571,"325": 2.68187,"350": 3.39838,"375": 2.84567,"400": 2.72283,"425": 2.64099,"450": 1.98588,"475": 1.88353,"500": 1.71976,"525": 1.86305,"550": 1.53551,"575": 1.10557,"600": 1.0032,"625": 0.96225,"650": 0.59374,"675": 0.83943,"700": 0.49137,"725": 0.30711,"750": 0.49138,"775": 0.34807,"800": 0.28664,"825": 0.2457,"850": 0.12285,"875": 0.10237,"900": 0.18427,"925": 0.12285,"950": 0.06142,"975": 0.10238,"1000": 0.04095,"1025": 0.0819,"1050": 0.0819,"1075": 0.04095,"1100": 0.04095,"1125": 0.04095,"1175": 0.02047,"1200": 0.02047,"1225": 0.02047,"1250": 0.0819,"1275": 0.06143}}}