{"type": "Feature","bbox": [-23.668,15.0574,-23.5918,15.1181],"geometry": {"type": "MultiPolygon","coordinates": [[[[-23.6425,15.0574,1074.7936],[-23.6224,15.072,429.8525],[-23.6191,15.078,400.9628],[-23.6191,15.0847,380.2899],[-23.6144,15.0967,301.9272],[-23.5991,15.1053,165.2564],[-23.5918,15.106,143.0249],[-23.5918,15.1113,220.4381],[-23.5971,15.1153,351.8214],[-23.6284,15.1153,342.1457],[-23.6361,15.1181,287.092],[-23.6472,15.107,344.2444],[-23.6578,15.107,431.2316],[-23.6642,15.1019,519.8648],[-23.6642,15.0943,554.5859],[-23.6578,15.0896,444.6365],[-23.668,15.0806,386.4766],[-23.6655,15.0679,729.097],[-23.6604,15.0574,984.1143],[-23.6564,15.0601,828.6442],[-23.651,15.0601,1000.0966],[-23.6425,15.0574,1074.7936]]]]}
,"properties": {"GID_1": "CPV.19_1","GID_0": "CPV","country": "CaboVerde","province": "SãoSalvadordoMundo","VARNAME_1": "NA","NL_NAME_1": "NA","TYPE_1": "Concelho","ENGTYPE_1": "County","CC_1": "NA","HASC_1": "CV.SS","ISO_1": "NA","name": "São_Salvadordo_Mundo.province","area_km2": 30.93185,"hist_schema_id": "Elevation0-9000","hist_area_km2": {"125": 0.08188,"150": 0.08188,"175": 0.38892,"200": 0.4708,"225": 0.71644,"250": 1.1463,"275": 1.6171,"300": 1.82181,"325": 2.39499,"350": 2.72254,"375": 2.37457,"400": 1.80144,"425": 1.51488,"450": 1.26922,"475": 1.085,"500": 1.12594,"525": 1.26927,"550": 1.49443,"575": 1.24877,"600": 1.12597,"625": 1.06456,"650": 0.63465,"675": 0.65513,"700": 0.57325,"725": 0.3071,"750": 0.49137,"775": 0.20474,"800": 0.20474,"825": 0.18426,"850": 0.14332,"875": 0.14332,"900": 0.12284,"925": 0.06142,"950": 0.06142,"975": 0.0819,"1000": 0.04095,"1050": 0.0819,"1075": 0.04095,"1100": 0.06142,"1125": 0.02047}}}