{"type":"Feature","properties":{"ISO3166-1-Alpha-3":"CPV","country":"Cape Verde","fill":"#FF0","id":"5060","name":"Porto Novo"},
"geometry":{"type": "Polygon","coordinates": [[[-25.15831,17.08578,1345.1718],[-25.19106,17.10761,1180.1224],[-25.24535,17.1367,0.0],[-25.2696,17.11433,82.6424],[-25.27977,17.10733,65.3815],[-25.28913,17.107,86.1429],[-25.30215,17.10806,0.0],[-25.3168,17.10611,0.0],[-25.33092,17.09683,8.9063],[-25.35558,17.06957,0.0],[-25.36042,17.05524,9.5218],[-25.35485,17.03848,43.6837],[-25.3483,17.03413,210.9944],[-25.33104,17.03095,415.1357],[-25.32754,17.02823,283.8083],[-25.31387,17.00495,145.8697],[-25.31338,16.93846,60.685],[-25.31078,16.92609,52.2782],[-25.2987,16.91739,52.2943],[-25.28966,16.91718,127.5877],[-25.28083,16.92072,276.6669],[-25.2692,16.923,134.0336],[-25.23131,16.923,201.9884],[-25.18786,16.92817,103.8337],[-25.16295,16.9453,16.2165],[-25.14342,16.97004,48.5853],[-25.11587,16.99746,43.1464],[-25.05557,17.02481,52.5093],[-25.04699,17.03506,91.1801],[-25.04271,17.03848,93.1401],[-25.02392,17.0454,156.1667],[-25.01968,17.04902,186.0128],[-25.01513,17.04914,173.5567],[-24.98668,17.07886,274.9918],[-25.00054,17.08776,703.6408],[-25.02832,17.10562,1412.6692],[-25.07298,17.11356,1454.6179],[-25.11267,17.10364,1227.2051],[-25.15831,17.08578,1345.1718]]]}}