{"type":"Feature","properties":{"GID_1":"CPV.6_1","GID_0":"CPV","country":"CaboVerde","province":"PortoNovo","VARNAME_1":"NA","NL_NAME_1":"NA","TYPE_1":"Concelho","ENGTYPE_1":"County","CC_1":"NA","HASC_1":"CV.PN","ISO_1":"CV-PN","name":"Porto_Novo.province"},
"geometry":{"type": "MultiPolygon","coordinates": [[[[-25.0666,17.1146,1455.9801],[-25.1008,17.0951,1293.217],[-25.1122,17.0928,1196.8934],[-25.1418,17.0945,1287.8188],[-25.1486,17.0934,1465.9058],[-25.1725,17.0803,1766.1716],[-25.1771,17.0803,1659.9519],[-25.1793,17.0831,1644.5795],[-25.1788,17.0928,1646.3923],[-25.1811,17.0968,1626.9792],[-25.197,17.1008,1208.3064],[-25.2044,17.1053,1060.7094],[-25.2299,17.1321,0.0],[-25.2337,17.129,0.0],[-25.2368,17.129,0.0],[-25.2393,17.1251,83.3984],[-25.2465,17.1218,53.3388],[-25.2599,17.1235,0.0],[-25.2612,17.1199,0.0],[-25.2693,17.1187,0.0],[-25.2707,17.1157,0.0],[-25.2776,17.1101,3.92],[-25.286,17.1082,0.0],[-25.294,17.1115,0.0],[-25.2957,17.1096,0.0],[-25.2985,17.111,0.0],[-25.3029,17.1063,38.725],[-25.3054,17.1065,0.0],[-25.306,17.1046,0.0],[-25.3088,17.1057,0.0],[-25.3146,17.1018,0.0],[-25.3204,17.1015,0.0],[-25.3257,17.0982,0.0],[-25.3318,17.0979,0.0],[-25.3337,17.0935,23.3791],[-25.3388,17.0926,0.0],[-25.3379,17.086,107.1815],[-25.3454,17.0835,3.5683],[-25.344,17.0768,33.0567],[-25.3532,17.0713,0.0],[-25.3551,17.0646,0.0],[-25.359,17.0613,0.0],[-25.3574,17.0579,0.0],[-25.3615,17.0554,0.3611],[-25.3618,17.0532,0.0],[-25.3587,17.0493,0.0],[-25.361,17.0465,0.0],[-25.3593,17.0379,0.0],[-25.3551,17.0346,0.0],[-25.3518,17.0265,0.0],[-25.3482,17.0235,0.0],[-25.3396,17.0224,28.3114],[-25.339,17.0204,0.0],[-25.3329,17.0182,0.0],[-25.331,17.0196,1.9329],[-25.3257,17.0157,49.4003],[-25.3215,17.0085,42.2403],[-25.3182,16.991,7.6612],[-25.3215,16.9762,0.0],[-25.3199,16.9718,0.0],[-25.3171,16.9701,40.0143],[-25.3174,16.9685,0.0],[-25.3121,16.9624,6.4789],[-25.3121,16.9576,0.0],[-25.3096,16.9535,1.7259],[-25.311,16.9493,32.1887],[-25.3118,16.9501,0.0],[-25.3132,16.9479,0.0],[-25.3124,16.9468,30.1513],[-25.3157,16.946,0.0],[-25.3188,16.9418,3.0033],[-25.3199,16.9343,0.0],[-25.3151,16.9287,5.4325],[-25.3171,16.9246,0.5768],[-25.3115,16.9221,1.7456],[-25.3099,16.916,0.5481],[-25.3065,16.9118,0.7523],[-25.2985,16.906,4.3455],[-25.2885,16.9101,0.0],[-25.2846,16.9143,71.4787],[-25.2735,16.9163,1.5287],[-25.2718,16.9204,0.0],[-25.2624,16.9212,0.6782],[-25.2612,16.9226,45.6972],[-25.2579,16.9207,0.0],[-25.2585,16.9151,0.0],[-25.256,16.9154,0.0],[-25.2549,16.9182,0.0],[-25.2507,16.9179,0.0],[-25.2496,16.9204,0.0],[-25.2463,16.9204,0.0],[-25.2443,16.919,0.0],[-25.2415,16.9196,0.0],[-25.2396,16.916,1.5337],[-25.2374,16.9163,7.1847],[-25.2362,16.914,3.7535],[-25.234,16.9146,2.2929],[-25.231,16.9124,8.6557],[-25.2171,16.914,18.9038],[-25.2138,16.9129,9.2282],[-25.2113,16.9096,0.0],[-25.2082,16.9104,2.6267],[-25.2082,16.9082,0.0],[-25.2065,16.9079,0.0],[-25.201,16.9107,4.4149],[-25.199,16.9154,3.805],[-25.1915,16.9168,0.0],[-25.1882,16.9193,5.1109],[-25.1826,16.9199,1.6077],[-25.1807,16.9182,0.0],[-25.1801,16.9215,14.1448],[-25.1737,16.9229,1.5549],[-25.1737,16.9257,8.5362],[-25.1654,16.9324,4.7349],[-25.1596,16.9426,1.1686],[-25.1565,16.944,0.0],[-25.1554,16.949,16.0316],[-25.1529,16.951,10.4364],[-25.1515,16.9551,0.0],[-25.1476,16.9582,1.9009],[-25.1329,16.9613,0.3376],[-25.1315,16.9638,0.0],[-25.1338,16.9646,3.3913],[-25.1332,16.9668,5.227],[-25.1287,16.9693,4.189],[-25.1265,16.9732,15.2379],[-25.1243,16.9729,0.0],[-25.119,16.9807,8.9865],[-25.1101,16.9885,1.9221],[-25.111,16.9901,8.0777],[-25.1065,16.9946,0.0],[-25.0976,16.999,1.085],[-25.0968,17.0015,0.0],[-25.0935,17.0032,0.8764],[-25.0915,17.0071,4.7142],[-25.0879,17.009,1.357],[-25.0843,17.0137,1.0999],[-25.0793,17.0137,0.0],[-25.074,17.0171,5.0505],[-25.0668,17.0182,1.386],[-25.0599,17.0171,12.0753],[-25.0593,17.0151,0.0],[-25.0576,17.0174,11.2607],[-25.0507,17.0174,4.0942],[-25.0432,17.0199,0.0],[-25.039,17.0263,0.5029],[-25.0365,17.026,0.0],[-25.036,17.0276,7.7377],[-25.034,17.0271,3.8506],[-25.0307,17.0296,0.0],[-25.0251,17.0307,3.9825],[-25.0138,17.0374,17.3315],[-25.0112,17.0407,11.1191],[-25.0015,17.0451,0.0],[-24.9974,17.0504,4.2206],[-24.986,17.0549,0.0],[-24.986,17.0618,0.0],[-24.9776,17.0702,0.0],[-25.0092,17.0957,1090.3257],[-25.0206,17.1036,1103.4779],[-25.0302,17.1065,1417.3976],[-25.0456,17.1065,1326.0186],[-25.0553,17.1048,1372.0342],[-25.0604,17.1071,1168.7402],[-25.0615,17.111,1216.9613],[-25.0666,17.1146,1455.9801]]]]}}