{"type": "Feature","id": "5047","bbox": [-23.68699,15.11907,-23.5916,15.22972],"geometry": {"type": "Polygon","coordinates": [[[-23.5916,15.17021,119.5785],[-23.6151,15.19501,57.8713],[-23.63028,15.21918,167.7327],[-23.63878,15.22626,45.6026],[-23.65608,15.22972,225.7526],[-23.67038,15.20654,155.1029],[-23.68588,15.1844,627.1365],[-23.68699,15.16668,567.658],[-23.66817,15.14896,298.7722],[-23.65045,15.13678,445.5304],[-23.64823,15.12128,269.5671],[-23.64048,15.11907,303.8073],[-23.6266,15.13141,335.6848],[-23.62055,15.13678,280.3953],[-23.5916,15.17021,119.5785]]]}
,"properties": {"ISO3166-1-Alpha-3": "CPV","country": "Cape Verde","fill": "#00F","name": "São Miguel","area_km2": 70.39214,"hist_schema_id": "Elevation0-9000","hist_area_km2": {"25": 0.53203,"50": 1.30959,"75": 1.94391,"100": 2.80334,"125": 3.54006,"150": 4.5632,"175": 5.42267,"200": 5.56591,"225": 5.70921,"250": 4.80885,"275": 4.76792,"300": 3.84711,"325": 3.51975,"350": 2.90575,"375": 2.49645,"400": 2.29183,"425": 1.57563,"450": 1.49375,"475": 1.20728,"500": 1.10495,"525": 0.83894,"550": 0.71616,"575": 0.59341,"600": 0.8185,"625": 0.53202,"650": 0.55249,"675": 0.49109,"700": 0.42972,"725": 0.45017,"750": 0.40924,"775": 0.40925,"800": 0.32739,"825": 0.36832,"850": 0.34786,"875": 0.28648,"900": 0.36832,"925": 0.20463,"950": 0.26601,"975": 0.28647,"1000": 0.12277,"1025": 0.14324,"1050": 0.02046}}}