{"type":"Feature","properties":{"GID_1":"CPV.18_1","GID_0":"CPV","country":"CaboVerde","province":"SãoMiguel","VARNAME_1":"CalhetadeSãoMiguel","NL_NAME_1":"NA","TYPE_1":"Concelho","ENGTYPE_1":"County","CC_1":"NA","HASC_1":"CV.SM","ISO_1":"NA","name":"São_Miguel.province"},
"geometry":{"type": "MultiPolygon","coordinates": [[[[-23.63,15.1546,128.2231],[-23.6291,15.1559,126.3777],[-23.6144,15.1572,132.5662],[-23.5892,15.1778,24.1233],[-23.5868,15.1807,0.0],[-23.5854,15.1871,0.0],[-23.5893,15.1901,0.4539],[-23.5915,15.189,0.3037],[-23.5918,15.1907,0.0],[-23.5946,15.1904,6.393],[-23.5938,15.1974,0.0],[-23.5965,15.1985,0.7687],[-23.5971,15.2032,0.0],[-23.5987,15.2038,0.0],[-23.6007,15.2021,0.7875],[-23.6021,15.2038,11.9687],[-23.6012,15.2074,0.0],[-23.6038,15.2138,0.0],[-23.6071,15.2162,0.0],[-23.611,15.2162,40.7026],[-23.6115,15.2226,0.0],[-23.6151,15.2282,0.0],[-23.6201,15.2282,17.7785],[-23.6246,15.2318,6.1627],[-23.6287,15.2304,39.6171],[-23.6304,15.2326,0.0],[-23.6315,15.2318,0.0],[-23.6321,15.2338,0.0],[-23.6362,15.236,0.0],[-23.634,15.2393,0.0],[-23.6396,15.241,25.9075],[-23.6388,15.2446,9.5088],[-23.6399,15.246,0.0],[-23.644,15.2451,10.2697],[-23.6471,15.2476,0.0],[-23.656,15.2487,0.0],[-23.6585,15.2476,0.0],[-23.6592,15.2487,14.921],[-23.666,15.2331,158.1453],[-23.6846,15.214,485.4936],[-23.685,15.2065,643.5312],[-23.6936,15.1965,789.5975],[-23.6916,15.1792,870.9281],[-23.6883,15.1765,726.1133],[-23.6703,15.1752,859.8593],[-23.6584,15.1645,413.8837],[-23.6537,15.1566,224.8752],[-23.655,15.1506,182.6802],[-23.6623,15.1393,241.6462],[-23.663,15.1359,321.5436],[-23.6617,15.1333,440.8681],[-23.645,15.1359,376.1335],[-23.63,15.1546,128.2231]]]]}}