{"type": "Feature","bbox": [-22.96410071522871,15.983587957806606,-22.666676398822489,16.245184637494106],"geometry": {"type": "Polygon","coordinates": [[[-22.852650519916239,16.207770086712827,0.0],[-22.878041144916267,16.216070867962856,0.0],[-22.895192023822489,16.224005438275356,0.0],[-22.907338019916267,16.232672430462856,0.0],[-22.911793586322517,16.237860418744049,0.0],[-22.91576087147871,16.245184637494106,0.0],[-22.924610969135045,16.2141177429628,0.0],[-22.913685676166239,16.126715399212856,0.0],[-22.932789680072517,16.108587957806577,0.0],[-22.947621223041239,16.1033999695253,0.0],[-22.957875129291267,16.090155340619077,0.0],[-22.963368293353739,16.072333074994077,0.0],[-22.96410071522871,16.053412176556634,0.0],[-22.957875129291267,16.031988836712827,1.4431],[-22.945668098041267,16.020819403119049,0.7978],[-22.909474250384989,16.0048892273378,6.4325],[-22.897877570697517,16.001715399212884,11.4301],[-22.883778449603767,15.989935614056577,32.4313],[-22.87407385975996,15.985052801556549,31.2404],[-22.86388098866621,15.983587957806606,36.2459],[-22.806324836322517,15.987066961712827,8.722],[-22.78777014882246,15.992743231244106,5.2303],[-22.751210090228767,16.011725164837856,0.9952],[-22.696644660541267,16.054144598431606,22.6859],[-22.67992102772871,16.064459539837856,14.7754],[-22.677296516010017,16.073858953900327,41.966],[-22.675770637103767,16.083258367962884,46.3117],[-22.672718879291267,16.087469793744049,27.1941],[-22.666676398822489,16.092596746869106,0.0],[-22.671009894916267,16.1033999695253,0.0],[-22.678517219134989,16.113104559369134,18.2597],[-22.68230139882246,16.1147525085878,37.9227],[-22.678822394916267,16.152899481244049,0.0],[-22.68266760975996,16.169867254681549,0.0],[-22.699696418353767,16.176886297650356,0.0],[-22.703968879291239,16.180731512494134,0.0],[-22.70995032460371,16.199835516400327,1.9357],[-22.713978644916239,16.206976629681549,0.0],[-22.723988410541239,16.213812567181634,0.0],[-22.734791633197517,16.218085028119106,0.0],[-22.793995734759989,16.232489324994106,0.0],[-22.811879035541295,16.229620672650356,0.0],[-22.819508430072545,16.2141177429628,0.0],[-22.829518195697517,16.205206610150356,0.0],[-22.852650519916239,16.207770086712827,0.0]]]}
,"properties": {"featurecla": "Island","name": "Boa Vista","namealt": null,"region": "Africa","subregion": "North Atlantic Ocean","min_label": 6.7,"max_label": 12.0,"scalerank": 7,"area_km2": 637.7209,"hist_schema_id": "Elevation0-9000","hist_area_km2": {"0": 98.3677,"25": 139.5207,"50": 201.2741,"75": 104.0906,"100": 43.4867,"125": 18.3101,"150": 10.2857,"175": 8.2084,"200": 5.6014,"225": 3.646,"250": 2.8517,"275": 1.1203,"300": 0.6723,"325": 0.2037,"350": 0.0815}}}