{"type":"Feature","properties":{"featurecla":"Island","name":"Fogo","namealt":null,"region":"Africa","subregion":"North Atlantic Ocean","min_label":6.7,"max_label":12.0,"scalerank":7},
"geometry":{"type": "Polygon","coordinates": [[[-24.334584113666267,14.833075262494106,245.9852],[-24.29973303944746,14.864203192181549,337.3341],[-24.293019172260017,14.874029852337827,356.3494],[-24.293446418353739,14.885504461712856,455.7175],[-24.29839026600996,14.896673895306606,609.7459],[-24.301686164447517,14.907660223431634,803.4274],[-24.296742316791267,14.918707586712856,373.5293],[-24.295887824603767,14.931708074994049,302.7966],[-24.30736243397871,14.980597235150356,638.1034],[-24.320301887103767,15.014166571087856,453.1625],[-24.32939612538496,15.029852606244049,215.7439],[-24.343434211322489,15.041876532025327,34.2534],[-24.364979621478739,15.046637274212799,271.6651],[-24.385731574603795,15.044684149212856,0.0],[-24.403614875384989,15.039252020306606,0.0],[-24.46471106679121,15.008917547650356,0.0],[-24.489064094134989,14.991766668744106,0.0],[-24.506886359759989,14.970404364056606,0.0],[-24.520802375384989,14.946417547650327,0.0],[-24.526356574603739,14.925909735150327,0.0],[-24.520558234760017,14.905157782025356,0.0],[-24.50676428944746,14.886114813275384,0.0],[-24.449208137103739,14.839239813275327,0.0],[-24.415150519916239,14.822027899212884,71.1152],[-24.37669837147871,14.817206121869077,137.9198],[-24.334584113666267,14.833075262494106,245.9852]]]}}