{"type":"Feature","properties":{"featurecla":"Island group","name":"ILHAS DE CABO VERDE","namealt":null,"region":"Africa","subregion":"North Atlantic Ocean","min_label":4.7,"max_label":6.0,"scalerank":4},
"geometry":{"type": "Polygon","coordinates": [[[-21.651905891010017,15.691046453900327,0.0],[-22.33983313710371,16.921332098431606,0.0],[-24.787220832416267,17.516669012494077,0.0],[-25.62065589100996,17.450506903119106,0.0],[-26.215992805072517,16.233404852337827,0.0],[-25.792652961322517,14.936957098431549,0.0],[-23.21300208241621,14.249029852337856,0.0],[-21.651905891010017,15.691046453900327,0.0]],
[[-22.852650519916239,16.207770086712827,0.0],[-22.829518195697517,16.205206610150356,0.0],[-22.819508430072545,16.2141177429628,0.0],[-22.811879035541295,16.229620672650356,0.0],[-22.793995734759989,16.232489324994106,0.0],[-22.734791633197517,16.218085028119106,0.0],[-22.723988410541239,16.213812567181634,0.0],[-22.713978644916239,16.206976629681549,0.0],[-22.70995032460371,16.199835516400327,1.9357],[-22.703968879291239,16.180731512494134,0.0],[-22.699696418353767,16.176886297650356,0.0],[-22.68266760975996,16.169867254681549,0.0],[-22.678822394916267,16.152899481244049,0.0],[-22.68230139882246,16.1147525085878,37.9227],[-22.678517219134989,16.113104559369134,18.2597],[-22.671009894916267,16.1033999695253,0.0],[-22.666676398822489,16.092596746869106,0.0],[-22.672718879291267,16.087469793744049,27.1941],[-22.675770637103767,16.083258367962884,46.3117],[-22.677296516010017,16.073858953900327,41.966],[-22.67992102772871,16.064459539837856,14.7754],[-22.696644660541267,16.054144598431606,22.6859],[-22.751210090228767,16.011725164837856,0.9952],[-22.78777014882246,15.992743231244106,5.2303],[-22.806324836322517,15.987066961712827,8.722],[-22.86388098866621,15.983587957806606,36.2459],[-22.87407385975996,15.985052801556549,31.2404],[-22.883778449603767,15.989935614056577,32.4313],[-22.897877570697517,16.001715399212884,11.4301],[-22.909474250384989,16.0048892273378,6.4325],[-22.945668098041267,16.020819403119049,0.7978],[-22.957875129291267,16.031988836712827,1.4431],[-22.96410071522871,16.053412176556634,0.0],[-22.963368293353739,16.072333074994077,0.0],[-22.957875129291267,16.090155340619077,0.0],[-22.947621223041239,16.1033999695253,0.0],[-22.932789680072517,16.108587957806577,0.0],[-22.913685676166239,16.126715399212856,0.0],[-22.924610969135045,16.2141177429628,0.0],[-22.91576087147871,16.245184637494106,0.0],[-22.911793586322517,16.237860418744049,0.0],[-22.907338019916267,16.232672430462856,0.0],[-22.895192023822489,16.224005438275356,0.0],[-22.878041144916267,16.216070867962856,0.0],[-22.852650519916239,16.207770086712827,0.0]],
[[-22.897572394916239,16.711432196087856,19.9375],[-22.884327766010017,16.699652410931577,5.9861],[-22.88152014882246,16.693915106244049,6.9431],[-22.88255774647871,16.682684637494077,29.918],[-22.88676917225996,16.662848211712827,72.7128],[-22.88780676991621,16.652655340619077,22.9086],[-22.889759894916239,16.647040106244106,67.3642],[-22.898915168353739,16.640631414837827,5.0329],[-22.90202796132246,16.635565496869077,5.0624],[-22.901600715228767,16.630316473431577,1.0326],[-22.899525519916295,16.622870184369049,0.0],[-22.897023078510017,16.616644598431634,0.0],[-22.895192023822489,16.615118719525384,0.0],[-22.901844855853739,16.607123114056549,-0.6972],[-22.909047004291267,16.603461004681606,1.1511],[-22.917775031634989,16.600409246869106,0.9304],[-22.929371711322545,16.594610907025356,0.0],[-22.941578742572545,16.670538641400384,0.0],[-22.956654426166295,16.7006900085878,7.7406],[-22.977772590228739,16.6901919617128,0.0],[-22.981861945697489,16.704657293744106,31.7291],[-22.98326575429121,16.724188543744106,13.1738],[-22.980152961322489,16.742254949994134,1.8429],[-22.970936652728767,16.752264715619134,10.7077],[-22.970936652728767,16.759100653119106,13.1186],[-22.982838508197489,16.762518621869077,8.2582],[-22.989430305072517,16.772162176556606,0.0],[-22.991688605853739,16.785467840619049,7.8065],[-22.99089514882246,16.816839910931549,0.0],[-22.970326301166239,16.832648016400356,0.0],[-22.92253577382246,16.861517645306606,0.0],[-22.917103644916239,16.854315496869049,0.0],[-22.899098273822489,16.8380191101503,0.0],[-22.895192023822489,16.830450750775356,26.7644],[-22.896473762103795,16.826239324994106,46.9948],[-22.902943488666267,16.814398504681577,21.2845],[-22.909962531634989,16.804571844525327,22.097],[-22.90813147694746,16.801764227337884,25.7569],[-22.90422522694746,16.799811102337827,32.7824],[-22.90202796132246,16.796271063275327,42.4712],[-22.904774543353795,16.737005926556634,4.9874],[-22.90202796132246,16.718085028119106,23.629],[-22.897572394916239,16.711432196087856,19.9375]],
[[-23.74010169179121,15.318548895306577,212.3632],[-23.738087531635045,15.312872625775356,193.7856],[-23.71941077382246,15.324103094525356,34.8039],[-23.703358527728767,15.314642645306577,201.648],[-23.697987433978739,15.297491766400356,216.3718],[-23.710804816791267,15.285589910931606,171.0882],[-23.697499152728739,15.267157293744077,134.9107],[-23.681874152728739,15.256048895306634,34.2721],[-23.648671027728739,15.238409735150299,70.8662],[-23.65617835194746,15.230963446087884,200.2443],[-23.638905402728795,15.227423407025356,99.0561],[-23.630482551166267,15.220343328900356,167.7327],[-23.615223762103767,15.196173407025299,31.9332],[-23.584339973041267,15.163641668744049,58.7835],[-23.56749426991621,15.153265692181577,67.8799],[-23.552479621478767,15.155218817181606,0.0],[-23.549244758197517,15.150580145306549,70.6256],[-23.547596808978739,15.147162176556577,82.2027],[-23.545155402728767,15.144354559369106,83.3055],[-23.539479133197489,15.141546942181577,70.7094],[-23.54088294179121,15.140265203900384,89.0353],[-23.53459632069746,15.134161688275384,67.0221],[-23.52733313710371,15.128607489056606,7.9199],[-23.52580725819746,15.128546453900299,17.2351],[-23.52306067616621,15.127936102337856,2.5067],[-23.51427161366621,15.129217840619049,0.0],[-23.511586066791267,15.128546453900299,0.0],[-23.510914680072517,15.125433660931577,0.372],[-23.512196418353739,15.117254949994106,34.0613],[-23.511586066791267,15.114203192181606,48.6504],[-23.470570441791267,15.039190985150299,46.6101],[-23.466664191791267,15.035467840619049,46.2107],[-23.46373450429121,15.034308172650384,28.9026],[-23.46086585194746,15.032110907025356,15.735],[-23.456898566791239,15.024847723431606,49.7514],[-23.454701301166239,15.020086981244106,35.0812],[-23.452076789447517,15.016363836712856,17.8551],[-23.44847571522871,15.013556219525327,14.1376],[-23.44322669179121,15.011847235150327,28.1915],[-23.447926398822489,14.996893621869106,24.1361],[-23.454823371478767,14.987127996869049,62.0162],[-23.478077766009989,14.970282293744077,110.7939],[-23.470570441791267,14.963446356244106,90.4196],[-23.48033606679121,14.947821356244134,93.7972],[-23.486500617572517,14.932135321087827,90.0436],[-23.494130012103767,14.919928289837827,55.5519],[-23.50847327382246,14.914984442181606,0.0],[-23.516346808978767,14.914007879681577,29.1641],[-23.532032844134989,14.909796453900327,48.2798],[-23.539479133197489,14.908819891400299,56.012],[-23.547535773822517,14.909674383587884,48.5737],[-23.556019660541267,14.914007879681577,46.5087],[-23.56340491444746,14.914984442181606,55.6281],[-23.596608039447489,14.915777899212884,133.5825],[-23.624318000385045,14.919317938275299,34.2126],[-23.649830695697489,14.927679754681606,2.6527],[-23.676625129291239,14.936773992962799,0.0],[-23.715199348041295,14.969610907025327,0.0],[-23.730702277728739,14.987005926556634,0.0],[-23.730824348041267,15.019659735150327,0.0],[-23.742237922259989,15.027533270306606,0.0],[-23.75841223866621,15.032538153119077,0.0],[-23.772206183978767,15.039190985150299,0.0],[-23.77281653554121,15.042914129681549,0.0],[-23.779713508197489,15.065863348431606,0.0],[-23.78246009022871,15.069708563275299,0.0],[-23.78636634022871,15.073614813275299,0.0],[-23.79027259022871,15.078863836712799,0.0],[-23.792713996478767,15.086920477337856,0.0],[-23.789967414447545,15.094977117962799,0.0],[-23.775746223041267,15.119391180462799,0.0],[-23.772206183978767,15.128546453900299,0.0],[-23.773060676166267,15.141607977337884,0.0],[-23.78587805897871,15.175726629681606,0.0],[-23.77635657460371,15.178412176556634,0.0],[-23.77025305897871,15.185187078900384,0.0],[-23.766957160541267,15.194952703900327,0.0],[-23.765980598041239,15.206732489056634,0.0],[-23.76384436757246,15.217535711712799,0.0],[-23.75890051991621,15.224310614056549,0.0],[-23.753956672259989,15.229254461712799,0.0],[-23.751759406634989,15.234686590619134,0.0],[-23.755116340228739,15.251471258587884,0.0],[-23.76347815663496,15.270941473431549,0.0],[-23.77452551991621,15.286810614056606,0.0],[-23.78587805897871,15.293036199994106,0.0],[-23.779225226947489,15.295416571087856,0.0],[-23.758534308978739,15.306036688275299,79.237799999999993],[-23.773243781634989,15.311773992962827,0.0],[-23.779713508197489,15.312872625775356,0.0],[-23.751759406634989,15.333929754681606,0.0],[-23.74431311757246,15.333929754681606,6.1877],[-23.743763801166239,15.326300360150356,73.5232],[-23.74211585194746,15.322088934369077,187.7269],[-23.74010169179121,15.318548895306577,212.3632]],
[[-24.293019172260017,16.643011785931577,58.9731],[-24.282582160541239,16.642523504681577,0.0],[-24.226979133197489,16.650763250775356,0.0],[-24.217274543353739,16.648932196087827,0.0],[-24.180775519916267,16.632086492962856,0.0],[-24.17259680897871,16.630316473431577,0.0],[-24.09019934804121,16.623663641400327,0.0],[-24.067677375385045,16.615118719525384,0.0],[-24.048085090228739,16.600043035931606,39.8043],[-24.037526008197517,16.594244696087884,0.0],[-24.032948371478767,16.598028875775356,0.0],[-24.032948371478767,16.563544012494049,141.9568],[-24.044300910541267,16.561041571087856,180.8127],[-24.114857551166267,16.560431219525327,171.1098],[-24.192128058978767,16.593695379681577,22.5748],[-24.233509894916267,16.603277899212856,95.2694],[-24.272572394916239,16.588385321087856,292.2944],[-24.286488410541239,16.571905828900356,122.2487],[-24.315541144916295,16.521551824994106,342.5721],[-24.32481848866621,16.483832098431577,32.1539],[-24.333607551166239,16.496161199994077,0.0],[-24.347645637103767,16.533148504681577,0.0],[-24.353566047260017,16.541632391400327,0.0],[-24.36027991444746,16.548346258587856,0.0],[-24.365834113666239,16.5567691101503,0.0],[-24.36809241444746,16.570379949994106,0.0],[-24.368702766009989,16.580755926556606,114.5246],[-24.371022101947517,16.588324285931634,232.7078],[-24.37621009022871,16.592962957806606,258.0902],[-24.38518225819746,16.594610907025356,153.0991],[-24.40843665272871,16.601385809369134,16.3513],[-24.424916144916267,16.6182925476503,7.4859],[-24.430836555072545,16.640631414837827,0.0],[-24.422718879291267,16.663458563275356,0.0],[-24.36162268788496,16.682806707806606,0.0],[-24.354420539447517,16.681769110150356,0.0],[-24.340748664447489,16.676520086712856,213.679],[-24.328846808978739,16.669012762494134,158.5345],[-24.305287238666239,16.649054266400356,213.9966],[-24.293019172260017,16.643011785931577,58.9731]],
[[-24.334584113666267,14.833075262494106,245.9852],[-24.37669837147871,14.817206121869077,137.9198],[-24.415150519916239,14.822027899212884,71.1152],[-24.449208137103739,14.839239813275327,0.0],[-24.50676428944746,14.886114813275384,0.0],[-24.520558234760017,14.905157782025356,0.0],[-24.526356574603739,14.925909735150327,0.0],[-24.520802375384989,14.946417547650327,0.0],[-24.506886359759989,14.970404364056606,0.0],[-24.489064094134989,14.991766668744106,0.0],[-24.46471106679121,15.008917547650356,0.0],[-24.403614875384989,15.039252020306606,0.0],[-24.385731574603795,15.044684149212856,0.0],[-24.364979621478739,15.046637274212799,271.6651],[-24.343434211322489,15.041876532025327,34.2534],[-24.32939612538496,15.029852606244049,215.7439],[-24.320301887103767,15.014166571087856,453.1625],[-24.30736243397871,14.980597235150356,638.1034],[-24.295887824603767,14.931708074994049,302.7966],[-24.296742316791267,14.918707586712856,373.5293],[-24.301686164447517,14.907660223431634,803.4274],[-24.29839026600996,14.896673895306606,609.7459],[-24.293446418353739,14.885504461712856,455.7175],[-24.293019172260017,14.874029852337827,356.3494],[-24.29973303944746,14.864203192181549,337.3341],[-24.334584113666267,14.833075262494106,245.9852]],
[[-25.09117591054121,17.1942202820253,214.3214],[-25.079701301166267,17.186529852337856,234.7472],[-25.054066535541295,17.187384344525327,0.0],[-25.039662238666295,17.183661199994077,0.0],[-25.03032385975996,17.176703192181577,60.3009],[-25.026478644916267,17.168951727337827,186.2655],[-25.02605139882246,17.146063543744077,380.7998],[-25.020741340228739,17.141607977337827,222.2968],[-24.997181769916239,17.135382391400327,0.0],[-24.991871711322517,17.132086492962856,0.0],[-24.988819953510017,17.126898504681577,0.0],[-24.975148078509989,17.115668035931577,0.0],[-24.971424933978739,17.108526922650356,284.9978],[-24.973194953510045,17.097845770306606,243.2934],[-24.97911536366621,17.088141180462884,214.1128],[-25.01537024647871,17.050360418744106,173.5567],[-25.019825812885045,17.050177313275356,186.0128],[-25.024159308978739,17.046576239056549,168.826],[-25.04283606679121,17.039618231244049,105.7554],[-25.047169562885017,17.036200262494077,105.2878],[-25.055775519916267,17.026007391400327,55.9116],[-25.116017219134989,16.998663641400356,43.1464],[-25.14354407460371,16.971197821087856,53.8131],[-25.163136359760017,16.9465396179628,71.3533],[-25.18797766835371,16.929388739056577,108.9104],[-25.231434699603767,16.924200750775356,237.7113],[-25.269398566791267,16.924200750775356,261.8727],[-25.280995246478739,16.921942449994049,276.6669],[-25.289845344134989,16.918402410931549,127.5877],[-25.298817512103739,16.918524481244077,52.2943],[-25.31090247304121,16.927313543744077,35.1374],[-25.313465949603795,16.939703680462827,73.7049],[-25.314015266010017,17.006109930462856,151.7445],[-25.32768714100996,17.0294253601503,460.8271],[-25.331166144916239,17.032171942181634,498.4033],[-25.348439094135017,17.035284735150356,180.2295],[-25.355030891010017,17.039618231244049,75.085],[-25.360524055072489,17.0564028992128,0.0],[-25.355702277728767,17.0708071960878,0.0],[-25.331105109760045,17.097967840619134,0.0],[-25.31700598866621,17.107245184369049,0.0],[-25.302357551166239,17.109259344525327,0.0],[-25.289296027728739,17.108221746869077,9.9865],[-25.279896613666295,17.108526922650356,65.3815],[-25.269764777728767,17.115545965619077,29.2851],[-25.24547278554121,17.137884832806577,0.0],[-25.226490851947545,17.145819403119106,0.0],[-25.202809211322517,17.159979559369049,0.0],[-25.17967688710371,17.165594793744049,0.0],[-25.118763801166239,17.194037176556577,0.0],[-25.10271155507246,17.197760321087827,0.0],[-25.09117591054121,17.1942202820253,214.3214]]]}}