{"type":"Feature","properties":{"featurecla":"Island","name":"Sal","namealt":null,"region":"Africa","subregion":"North Atlantic Ocean","min_label":6.7,"max_label":12.0,"scalerank":7},
"geometry":{"type": "Polygon","coordinates": [[[-22.897572394916239,16.711432196087856,19.9375],[-22.90202796132246,16.718085028119106,23.629],[-22.904774543353795,16.737005926556634,4.9874],[-22.90202796132246,16.796271063275327,42.4712],[-22.90422522694746,16.799811102337827,32.7824],[-22.90813147694746,16.801764227337884,25.7569],[-22.909962531634989,16.804571844525327,22.097],[-22.902943488666267,16.814398504681577,21.2845],[-22.896473762103795,16.826239324994106,46.9948],[-22.895192023822489,16.830450750775356,26.7644],[-22.899098273822489,16.8380191101503,0.0],[-22.917103644916239,16.854315496869049,0.0],[-22.92253577382246,16.861517645306606,0.0],[-22.970326301166239,16.832648016400356,0.0],[-22.99089514882246,16.816839910931549,0.0],[-22.991688605853739,16.785467840619049,7.8065],[-22.989430305072517,16.772162176556606,0.0],[-22.982838508197489,16.762518621869077,8.2582],[-22.970936652728767,16.759100653119106,13.1186],[-22.970936652728767,16.752264715619134,10.7077],[-22.980152961322489,16.742254949994134,1.8429],[-22.98326575429121,16.724188543744106,13.1738],[-22.981861945697489,16.704657293744106,31.7291],[-22.977772590228739,16.6901919617128,0.0],[-22.956654426166295,16.7006900085878,7.7406],[-22.941578742572545,16.670538641400384,0.0],[-22.929371711322545,16.594610907025356,0.0],[-22.917775031634989,16.600409246869106,0.9304],[-22.909047004291267,16.603461004681606,1.1511],[-22.901844855853739,16.607123114056549,-0.6972],[-22.895192023822489,16.615118719525384,0.0],[-22.897023078510017,16.616644598431634,0.0],[-22.899525519916295,16.622870184369049,0.0],[-22.901600715228767,16.630316473431577,1.0326],[-22.90202796132246,16.635565496869077,5.0624],[-22.898915168353739,16.640631414837827,5.0329],[-22.889759894916239,16.647040106244106,67.3642],[-22.88780676991621,16.652655340619077,22.9086],[-22.88676917225996,16.662848211712827,72.7128],[-22.88255774647871,16.682684637494077,29.918],[-22.88152014882246,16.693915106244049,6.9431],[-22.884327766010017,16.699652410931577,5.9861],[-22.897572394916239,16.711432196087856,19.9375]]]}}