{"type": "Feature","bbox": [-23.792713996478767,14.908819891400299,-23.44322669179121,15.333929754681606],"geometry": {"type": "Polygon","coordinates": [[[-23.74010169179121,15.318548895306577,212.3632],[-23.74211585194746,15.322088934369077,187.7269],[-23.743763801166239,15.326300360150356,73.5232],[-23.74431311757246,15.333929754681606,6.1877],[-23.751759406634989,15.333929754681606,0.0],[-23.779713508197489,15.312872625775356,0.0],[-23.773243781634989,15.311773992962827,0.0],[-23.758534308978739,15.306036688275299,79.237799999999993],[-23.779225226947489,15.295416571087856,0.0],[-23.78587805897871,15.293036199994106,0.0],[-23.77452551991621,15.286810614056606,0.0],[-23.76347815663496,15.270941473431549,0.0],[-23.755116340228739,15.251471258587884,0.0],[-23.751759406634989,15.234686590619134,0.0],[-23.753956672259989,15.229254461712799,0.0],[-23.75890051991621,15.224310614056549,0.0],[-23.76384436757246,15.217535711712799,0.0],[-23.765980598041239,15.206732489056634,0.0],[-23.766957160541267,15.194952703900327,0.0],[-23.77025305897871,15.185187078900384,0.0],[-23.77635657460371,15.178412176556634,0.0],[-23.78587805897871,15.175726629681606,0.0],[-23.773060676166267,15.141607977337884,0.0],[-23.772206183978767,15.128546453900299,0.0],[-23.775746223041267,15.119391180462799,0.0],[-23.789967414447545,15.094977117962799,0.0],[-23.792713996478767,15.086920477337856,0.0],[-23.79027259022871,15.078863836712799,0.0],[-23.78636634022871,15.073614813275299,0.0],[-23.78246009022871,15.069708563275299,0.0],[-23.779713508197489,15.065863348431606,0.0],[-23.77281653554121,15.042914129681549,0.0],[-23.772206183978767,15.039190985150299,0.0],[-23.75841223866621,15.032538153119077,0.0],[-23.742237922259989,15.027533270306606,0.0],[-23.730824348041267,15.019659735150327,0.0],[-23.730702277728739,14.987005926556634,0.0],[-23.715199348041295,14.969610907025327,0.0],[-23.676625129291239,14.936773992962799,0.0],[-23.649830695697489,14.927679754681606,2.6527],[-23.624318000385045,14.919317938275299,34.2126],[-23.596608039447489,14.915777899212884,133.5825],[-23.56340491444746,14.914984442181606,55.6281],[-23.556019660541267,14.914007879681577,46.5087],[-23.547535773822517,14.909674383587884,48.5737],[-23.539479133197489,14.908819891400299,56.012],[-23.532032844134989,14.909796453900327,48.2798],[-23.516346808978767,14.914007879681577,29.1641],[-23.50847327382246,14.914984442181606,0.0],[-23.494130012103767,14.919928289837827,55.5519],[-23.486500617572517,14.932135321087827,90.0436],[-23.48033606679121,14.947821356244134,93.7972],[-23.470570441791267,14.963446356244106,90.4196],[-23.478077766009989,14.970282293744077,110.7939],[-23.454823371478767,14.987127996869049,62.0162],[-23.447926398822489,14.996893621869106,24.1361],[-23.44322669179121,15.011847235150327,28.1915],[-23.44847571522871,15.013556219525327,14.1376],[-23.452076789447517,15.016363836712856,17.8551],[-23.454701301166239,15.020086981244106,35.0812],[-23.456898566791239,15.024847723431606,49.7514],[-23.46086585194746,15.032110907025356,15.735],[-23.46373450429121,15.034308172650384,28.9026],[-23.466664191791267,15.035467840619049,46.2107],[-23.470570441791267,15.039190985150299,46.6101],[-23.511586066791267,15.114203192181606,48.6504],[-23.512196418353739,15.117254949994106,34.0613],[-23.510914680072517,15.125433660931577,0.372],[-23.511586066791267,15.128546453900299,0.0],[-23.51427161366621,15.129217840619049,0.0],[-23.52306067616621,15.127936102337856,2.5067],[-23.52580725819746,15.128546453900299,17.2351],[-23.52733313710371,15.128607489056606,7.9199],[-23.53459632069746,15.134161688275384,67.0221],[-23.54088294179121,15.140265203900384,89.0353],[-23.539479133197489,15.141546942181577,70.7094],[-23.545155402728767,15.144354559369106,83.3055],[-23.547596808978739,15.147162176556577,82.2027],[-23.549244758197517,15.150580145306549,70.6256],[-23.552479621478767,15.155218817181606,0.0],[-23.56749426991621,15.153265692181577,67.8799],[-23.584339973041267,15.163641668744049,58.7835],[-23.615223762103767,15.196173407025299,31.9332],[-23.630482551166267,15.220343328900356,167.7327],[-23.638905402728795,15.227423407025356,99.0561],[-23.65617835194746,15.230963446087884,200.2443],[-23.648671027728739,15.238409735150299,70.8662],[-23.681874152728739,15.256048895306634,34.2721],[-23.697499152728739,15.267157293744077,134.9107],[-23.710804816791267,15.285589910931606,171.0882],[-23.697987433978739,15.297491766400356,216.3718],[-23.703358527728767,15.314642645306577,201.648],[-23.71941077382246,15.324103094525356,34.8039],[-23.738087531635045,15.312872625775356,193.7856],[-23.74010169179121,15.318548895306577,212.3632]]]}
,"properties": {"featurecla": "Island","name": "Santiago","namealt": null,"region": "Africa","subregion": "North Atlantic Ocean","min_label": 6.0,"max_label": 11.0,"scalerank": 6,"area_km2": 964.6907,"hist_schema_id": "Elevation0-9000","hist_area_km2": {"0": 58.4554,"25": 28.4553,"50": 38.0201,"75": 49.6288,"100": 54.4608,"125": 47.8045,"150": 46.4914,"175": 52.7929,"200": 54.248,"225": 47.6371,"250": 42.3778,"275": 39.2436,"300": 35.1905,"325": 35.0074,"350": 36.1541,"375": 31.6298,"400": 29.7046,"425": 28.6604,"450": 29.0081,"475": 24.9744,"500": 21.0849,"525": 18.1785,"550": 17.6463,"575": 13.5523,"600": 12.0579,"625": 10.0106,"650": 8.4546,"675": 8.1478,"700": 6.162,"725": 5.2001,"750": 6.3057,"775": 4.5448,"800": 4.1967,"825": 4.2582,"850": 2.9686,"875": 2.6204,"900": 2.3748,"925": 1.4741,"950": 1.474,"975": 1.085,"1000": 0.7166,"1025": 0.5323,"1050": 0.5119,"1075": 0.2662,"1100": 0.2252,"1125": 0.1433,"1150": 0.1228,"1175": 0.1433,"1200": 0.1024,"1225": 0.041,"1250": 0.0819,"1275": 0.0614}}}