{"type": "Feature","bbox": [-25.360524055072489,16.918402410931549,-24.971424933978739,17.197760321087827],"geometry": {"type": "Polygon","coordinates": [[[-25.09117591054121,17.1942202820253,214.3214],[-25.10271155507246,17.197760321087827,0.0],[-25.118763801166239,17.194037176556577,0.0],[-25.17967688710371,17.165594793744049,0.0],[-25.202809211322517,17.159979559369049,0.0],[-25.226490851947545,17.145819403119106,0.0],[-25.24547278554121,17.137884832806577,0.0],[-25.269764777728767,17.115545965619077,29.2851],[-25.279896613666295,17.108526922650356,65.3815],[-25.289296027728739,17.108221746869077,9.9865],[-25.302357551166239,17.109259344525327,0.0],[-25.31700598866621,17.107245184369049,0.0],[-25.331105109760045,17.097967840619134,0.0],[-25.355702277728767,17.0708071960878,0.0],[-25.360524055072489,17.0564028992128,0.0],[-25.355030891010017,17.039618231244049,75.085],[-25.348439094135017,17.035284735150356,180.2295],[-25.331166144916239,17.032171942181634,498.4033],[-25.32768714100996,17.0294253601503,460.8271],[-25.314015266010017,17.006109930462856,151.7445],[-25.313465949603795,16.939703680462827,73.7049],[-25.31090247304121,16.927313543744077,35.1374],[-25.298817512103739,16.918524481244077,52.2943],[-25.289845344134989,16.918402410931549,127.5877],[-25.280995246478739,16.921942449994049,276.6669],[-25.269398566791267,16.924200750775356,261.8727],[-25.231434699603767,16.924200750775356,237.7113],[-25.18797766835371,16.929388739056577,108.9104],[-25.163136359760017,16.9465396179628,71.3533],[-25.14354407460371,16.971197821087856,53.8131],[-25.116017219134989,16.998663641400356,43.1464],[-25.055775519916267,17.026007391400327,55.9116],[-25.047169562885017,17.036200262494077,105.2878],[-25.04283606679121,17.039618231244049,105.7554],[-25.024159308978739,17.046576239056549,168.826],[-25.019825812885045,17.050177313275356,186.0128],[-25.01537024647871,17.050360418744106,173.5567],[-24.97911536366621,17.088141180462884,214.1128],[-24.973194953510045,17.097845770306606,243.2934],[-24.971424933978739,17.108526922650356,284.9978],[-24.975148078509989,17.115668035931577,0.0],[-24.988819953510017,17.126898504681577,0.0],[-24.991871711322517,17.132086492962856,0.0],[-24.997181769916239,17.135382391400327,0.0],[-25.020741340228739,17.141607977337827,222.2968],[-25.02605139882246,17.146063543744077,380.7998],[-25.026478644916267,17.168951727337827,186.2655],[-25.03032385975996,17.176703192181577,60.3009],[-25.039662238666295,17.183661199994077,0.0],[-25.054066535541295,17.187384344525327,0.0],[-25.079701301166267,17.186529852337856,234.7472],[-25.09117591054121,17.1942202820253,214.3214]]]}
,"properties": {"featurecla": "Island","name": "Santo Antão","namealt": null,"region": "Africa","subregion": "North Atlantic Ocean","min_label": 6.7,"max_label": 12.0,"scalerank": 7,"area_km2": 743.467,"hist_schema_id": "Elevation0-9000","hist_area_km2": {"0": 21.4974,"25": 6.3441,"50": 8.8783,"75": 12.0412,"100": 13.5414,"125": 14.9194,"150": 15.6079,"175": 16.7221,"200": 16.4382,"225": 16.276,"250": 16.5191,"275": 16.5998,"300": 16.316,"325": 15.3637,"350": 16.1541,"375": 15.5254,"400": 15.9918,"425": 15.2219,"450": 15.3028,"475": 15.7078,"500": 15.3837,"525": 15.1808,"550": 14.5124,"575": 15.4649,"600": 13.7625,"625": 14.4514,"650": 13.6609,"675": 13.6813,"700": 12.6882,"725": 12.9114,"750": 11.6546,"775": 12.2627,"800": 11.4317,"825": 10.601,"850": 10.5196,"875": 9.5266,"900": 9.6889,"925": 10.1752,"950": 9.1617,"975": 9.0606,"1000": 8.8781,"1025": 8.3713,"1050": 7.6414,"1075": 7.9659,"1100": 8.7564,"1125": 8.0678,"1150": 8.1483,"1175": 8.1077,"1200": 10.1545,"1225": 9.3641,"1250": 9.4048,"1275": 8.6346,"1300": 8.6751,"1325": 8.0467,"1350": 7.54,"1375": 7.1349,"1400": 6.4458,"1425": 6.2026,"1450": 5.2501,"1475": 6.4057,"1500": 6.9939,"1525": 5.6966,"1550": 3.8718,"1575": 3.2435,"1600": 3.1623,"1625": 2.7974,"1650": 2.2703,"1675": 1.8852,"1700": 1.6217,"1725": 1.0946,"1750": 1.1555,"1775": 0.892,"1800": 0.5473,"1825": 0.3446,"1850": 0.4257,"1875": 0.5473,"1900": 0.3852,"1925": 0.2433,"1950": 0.2838,"1975": 0.0608}}}