{"type":"Feature","properties":{"ISO3166-1-Alpha-3":"CPV","country":"Cape Verde","fill":"#F0F","id":"5056","name":"Sal"},
"geometry":{"type": "Polygon","coordinates": [[[-22.92919,16.59341,0.0],[-22.91763,16.59919,0.9304],[-22.90884,16.6022,1.1511],[-22.90172,16.6059,0.0896],[-22.89509,16.61392,0.0],[-22.89684,16.61546,0.0],[-22.8994,16.62165,0.0],[-22.90148,16.6291,1.0326],[-22.90184,16.63443,4.4444],[-22.89879,16.63947,2.9414],[-22.88956,16.6459,67.3642],[-22.8876,16.65143,20.3749],[-22.88663,16.66169,84.5501],[-22.88239,16.68155,52.1113],[-22.88134,16.69269,8.8595],[-22.88419,16.69843,10.3364],[-22.89737,16.71027,23.3059],[-22.90184,16.71695,24.6298],[-22.90465,16.73583,4.9874],[-22.90184,16.79511,59.2204],[-22.90404,16.79857,49.0912],[-22.90795,16.8006,25.7569],[-22.90978,16.80337,19.6336],[-22.90274,16.81318,14.4875],[-22.89631,16.82502,50.8668],[-22.89509,16.82929,33.3684],[-22.89892,16.83682,29.0849],[-22.91698,16.85318,0.2416],[-22.92243,16.8603,0.0],[-22.97012,16.83145,5.5722],[-22.99079,16.81566,0.0],[-22.99157,16.78433,5.3733],[-22.98925,16.77094,0.0],[-22.98274,16.76138,8.2626],[-22.97081,16.75788,13.4412],[-22.97081,16.75104,18.9499],[-22.98005,16.74112,0.0],[-22.98314,16.72305,8.5107],[-22.98176,16.70352,37.9504],[-22.97761,16.68903,0.0],[-22.95653,16.69945,5.4528],[-22.9414,16.66938,0.0],[-22.92919,16.59341,0.0]]]}}