{"type": "Feature","bbox": [-22.9946,16.5854,-22.8718,16.8551],"geometry": {"type": "MultiPolygon","coordinates": [[[[-22.9932,16.7015,1.1344],[-22.994,16.7015,1.1344],[-22.9935,16.6985,0.0],[-22.9918,16.6999,0.0],[-22.9932,16.7015,1.1344]]],
[[[-22.919,16.8551,3.3571],[-22.9212,16.8549,1.5073],[-22.9251,16.8485,10.1566],[-22.9351,16.8451,0.0],[-22.9368,16.8432,4.7372],[-22.939,16.8435,0.0],[-22.9407,16.8412,13.0768],[-22.946,16.8415,5.7574],[-22.9518,16.8449,0.7278],[-22.9599,16.8363,5.7854],[-22.9724,16.8312,2.4175],[-22.9799,16.8312,0.0],[-22.9813,16.8279,4.3872],[-22.986,16.8257,3.1],[-22.9879,16.8171,11.1975],[-22.9935,16.8113,4.3149],[-22.9929,16.8007,2.6329],[-22.9946,16.7968,0.0],[-22.9918,16.7849,5.3733],[-22.9924,16.7799,0.0],[-22.9899,16.7729,0.0],[-22.9876,16.7718,4.4832],[-22.9912,16.7682,0.175],[-22.9899,16.7588,0.7324],[-22.9826,16.7535,0.0],[-22.981,16.7546,0.0],[-22.9801,16.7535,0.0],[-22.9793,16.7554,0.0],[-22.9782,16.7538,0.0],[-22.9782,16.7479,0.0],[-22.9824,16.7443,0.0],[-22.979,16.7399,0.2827],[-22.9829,16.7399,0.0],[-22.9885,16.731,0.0],[-22.9851,16.7257,6.6347],[-22.984,16.7204,0.0],[-22.9787,16.7171,1.2636],[-22.9768,16.7121,1.2777],[-22.9835,16.7096,1.4488],[-22.9896,16.6993,0.0],[-22.9879,16.6985,20.6493],[-22.9874,16.6951,0.0],[-22.9815,16.6938,20.5333],[-22.9715,16.6971,0.2556],[-22.9699,16.7001,1.491],[-22.9543,16.6974,2.3647],[-22.9471,16.6949,0.0],[-22.9396,16.6882,0.54],[-22.9368,16.6779,0.0],[-22.9371,16.6688,0.0],[-22.9385,16.6626,1.2138],[-22.9412,16.6585,2.6186],[-22.9493,16.6535,0.0],[-22.949,16.6515,0.0],[-22.9465,16.6515,0.4961],[-22.946,16.6493,0.2665],[-22.946,16.6476,2.6812],[-22.9482,16.649,0.0],[-22.9465,16.6446,0.659],[-22.9482,16.6429,0.0],[-22.9446,16.6426,1.8111],[-22.9451,16.6393,0.0],[-22.936,16.6332,0.2358],[-22.9307,16.6249,0.6224],[-22.9279,16.6118,2.3145],[-22.9265,16.6115,2.3145],[-22.9276,16.6085,4.0183],[-22.9299,16.6079,0.2874],[-22.9301,16.6043,0.462],[-22.9254,16.6024,2.3635],[-22.9271,16.6021,0.0],[-22.9254,16.6007,1.3201],[-22.9285,16.5954,0.0],[-22.9287,16.5896,0.0],[-22.9271,16.5868,0.0],[-22.9237,16.5854,0.0],[-22.9199,16.5876,0.8603],[-22.916,16.5946,1.3305],[-22.9143,16.5935,0.5037],[-22.9101,16.5974,3.3551],[-22.8979,16.596,1.8244],[-22.8885,16.591,0.566],[-22.886,16.5918,0.0],[-22.8854,16.5954,2.2061],[-22.8876,16.5979,1.1485],[-22.8876,16.6013,0.0881],[-22.8921,16.6043,3.3172],[-22.8985,16.6185,0.0],[-22.8993,16.6354,0.0],[-22.894,16.6415,0.0],[-22.8879,16.6429,0.375],[-22.886,16.6551,1.1933],[-22.8793,16.6646,2.5128],[-22.8718,16.6693,0.0],[-22.8726,16.6729,0.0],[-22.8765,16.6774,0.348],[-22.8782,16.6865,0.0],[-22.8799,16.6885,0.0],[-22.8776,16.6954,0.0],[-22.8887,16.7068,0.8645],[-22.8935,16.7199,5.3199],[-22.8924,16.7229,0.0742],[-22.8957,16.7268,1.5304],[-22.8951,16.7304,0.0],[-22.8968,16.7301,0.2594],[-22.8968,16.7324,0.0],[-22.899,16.7326,0.0],[-22.8962,16.736,0.7876],[-22.8946,16.736,0.0998],[-22.8935,16.7429,0.5598],[-22.8949,16.7476,0.0],[-22.8965,16.7482,0.5372],[-22.8957,16.7501,0.3534],[-22.9001,16.7518,3.7837],[-22.8951,16.756,0.0],[-22.894,16.7618,3.3064],[-22.8843,16.7599,0.0],[-22.8826,16.7615,0.0],[-22.8821,16.7693,20.929],[-22.8774,16.7735,0.0],[-22.8779,16.7749,0.0],[-22.8799,16.7732,0.0],[-22.8843,16.7782,1.7941],[-22.8874,16.779,10.9388],[-22.8874,16.7838,0.0],[-22.8915,16.7874,7.6675],[-22.8946,16.799,0.0],[-22.9004,16.8018,3.9485],[-22.9024,16.8049,4.5415],[-22.8971,16.8118,0.0],[-22.8962,16.8196,2.4736],[-22.8926,16.8204,0.0],[-22.8913,16.8224,0.0],[-22.8918,16.8254,8.578],[-22.8901,16.8282,0.0],[-22.8915,16.8315,9.1277],[-22.8893,16.8346,0.0],[-22.8926,16.8371,0.0],[-22.8957,16.8357,7.2785],[-22.903199999999998,16.8385,38.5167],[-22.9037,16.8426,0.0],[-22.9101,16.8421,2.0871],[-22.9118,16.8507,0.0],[-22.919,16.8551,3.3571]]]]}
,"properties": {"GID_1": "CPV.11_1","GID_0": "CPV","country": "CaboVerde","province": "Sal","VARNAME_1": "NA","NL_NAME_1": "NA","TYPE_1": "Concelho","ENGTYPE_1": "County","CC_1": "NA","HASC_1": "CV.SL","ISO_1": "CV-SL","name": "Sal.province","area_km2": 223.9325,"hist_schema_id": "Elevation0-9000","hist_area_km2": {"0": 53.9792,"25": 111.5836,"50": 46.0278,"75": 5.7856,"100": 2.3752,"125": 1.5223,"150": 1.0757,"175": 0.5277,"200": 0.4668,"225": 0.1624,"250": 0.1827,"275": 0.0609,"300": 0.0406,"325": 0.0609,"350": 0.0406,"375": 0.0406}}}