{"type": "Feature","id": "5053","bbox": [-23.56408,14.90762,-23.47045,14.98619],"geometry": {"type": "Polygon","coordinates": [[[-23.47147,14.97372,42.8251],[-23.491,14.98619,86.0997],[-23.51093,14.98287,234.4165],[-23.5364,14.96626,132.9131],[-23.56408,14.96072,200.3156],[-23.56046,14.94176,145.187],[-23.54763,14.92571,63.5874],[-23.5393,14.90762,47.2469],[-23.53185,14.90864,43.4545],[-23.51622,14.91283,40.7868],[-23.50829,14.9138,0.0],[-23.49401,14.91869,54.8708],[-23.48632,14.93085,81.1391],[-23.48021,14.9466,90.1328],[-23.47045,14.96223,90.4196],[-23.47789,14.96906,110.7939],[-23.47147,14.97372,42.8251]]]}
,"properties": {"ISO3166-1-Alpha-3": "CPV","country": "Cape Verde","fill": "#F0F","name": "Praia","area_km2": 55.63663,"hist_schema_id": "Elevation0-9000","hist_area_km2": {"0": 1.18826,"25": 3.93339,"50": 6.33023,"75": 9.09556,"100": 11.94256,"125": 7.70199,"150": 4.62936,"175": 4.93656,"200": 3.134,"225": 1.43382,"250": 0.98318,"275": 0.32771}}}