{"type": "Feature","bbox": [-23.5872,14.8996,-23.454,14.9929],"geometry": {"type": "MultiPolygon","coordinates": [[[[-23.4623,14.9735,3.1429],[-23.472,14.9802,48.298],[-23.4913,14.9835,83.2723],[-23.516,14.9929,240.3617],[-23.5286,14.9922,327.3997],[-23.5399,14.9882,219.3505],[-23.5599,14.9869,290.9182],[-23.5872,14.9762,329.4575],[-23.5865,14.9571,264.3259],[-23.5521,14.9029,1.2775],[-23.5462,14.904,2.1416],[-23.5449,14.9057,5.5994],[-23.534,14.9021,7.1171],[-23.5304,14.9035,0.0357],[-23.5251,14.9024,1.9326],[-23.5215,14.904,2.818],[-23.5187,14.9024,3.1985],[-23.5171,14.904,22.2864],[-23.5138,14.9032,0.0],[-23.5104,14.8996,0.1686],[-23.5118,14.9021,2.605],[-23.5101,14.9063,0.0],[-23.5115,14.9121,1.4335],[-23.5063,14.9168,0.0],[-23.504,14.9171,27.9738],[-23.5018,14.9115,0.3259],[-23.4993,14.9099,0.0],[-23.4999,14.9076,1.8966],[-23.4954,14.9107,16.0295],[-23.4929,14.9082,0.0],[-23.4912,14.9101,0.0],[-23.4851,14.911,11.503],[-23.484,14.9057,0.0],[-23.481,14.9057,2.5354],[-23.4793,14.9079,4.4879],[-23.4776,14.9135,0.0],[-23.479,14.9154,24.9787],[-23.479,14.9224,44.1623],[-23.4718,14.9301,8.5943],[-23.4713,14.9393,3.2428],[-23.4699,14.9412,30.4869],[-23.465699999999998,14.9424,0.0],[-23.466,14.944,7.8147],[-23.4626,14.9482,0.0],[-23.4632,14.9513,0.0],[-23.4674,14.9513,3.1814],[-23.4701,14.9554,12.743],[-23.4651,14.9524,3.9157],[-23.4582,14.9565,0.0],[-23.4554,14.9596,2.5896],[-23.456,14.9618,1.7716],[-23.454,14.9624,1.8745],[-23.4543,14.9651,0.748],[-23.4576,14.9643,1.7751],[-23.4593,14.9654,4.5385],[-23.4623,14.9735,3.1429]]]]}
,"properties": {"GID_1": "CPV.7_1","GID_0": "CPV","country": "CaboVerde","province": "Praia","VARNAME_1": "NA","NL_NAME_1": "NA","TYPE_1": "Concelho","ENGTYPE_1": "County","CC_1": "NA","HASC_1": "CV.PC","ISO_1": "CV-PR","name": "Praia.province","area_km2": 102.34091,"hist_schema_id": "Elevation0-9000","hist_area_km2": {"0": 4.07681,"25": 7.23175,"50": 11.65679,"75": 15.81493,"100": 14.35994,"125": 8.64432,"150": 5.98131,"175": 6.65717,"200": 8.33672,"225": 7.23038,"250": 5.42783,"275": 2.9085,"300": 1.84339,"325": 1.39277,"350": 0.59397,"375": 0.12289,"400": 0.06144}}}