{"type":"Feature","properties":{"ISO3166-1-Alpha-3":"CPV","country":"Cape Verde","fill":"#FF0","id":"5045","name":"Tarrafal"},
"geometry":{"type": "Polygon","coordinates": [[[-23.65608,15.22972,225.7526],[-23.64855,15.23721,121.4402],[-23.68175,15.25483,73.0202],[-23.69734,15.26602,134.0233],[-23.71068,15.28437,161.726],[-23.69782,15.29633,225.4733],[-23.70324,15.31346,207.9046],[-23.71923,15.3229,38.6093],[-23.73795,15.31167,178.0541],[-23.7399,15.31733,212.3632],[-23.74201,15.32095,200.2832],[-23.74356,15.32514,155.9772],[-23.74413,15.33275,14.3299],[-23.75158,15.33275,16.6269],[-23.77953,15.31167,0.0],[-23.77306,15.31061,0.0],[-23.75841,15.30488,119.6787],[-23.77912,15.29413,0.0],[-23.78576,15.29182,0.0],[-23.7744,15.28563,0.0],[-23.7633,15.26976,0.0],[-23.75495,15.25031,0.0],[-23.75158,15.23347,0.0],[-23.75381,15.22809,0.0],[-23.7587,15.22309,0.0],[-23.76366,15.21629,0.0],[-23.76586,15.20551,0.0],[-23.76675,15.19375,0.0],[-23.77013,15.18399,0.0],[-23.75453,15.18329,471.6955],[-23.72464,15.17997,763.7424],[-23.68588,15.1844,627.1365],[-23.67038,15.20654,155.1029],[-23.65608,15.22972,225.7526]]]}}