{"type":"Feature","properties":{"GID_1":"CPV.21_1","GID_0":"CPV","country":"CaboVerde","province":"Tarrafal","VARNAME_1":"NA","NL_NAME_1":"NA","TYPE_1":"Concelho","ENGTYPE_1":"County","CC_1":"NA","HASC_1":"CV.TF","ISO_1":"CV-TA","name":"Tarrafal.province"},
"geometry":{"type": "MultiPolygon","coordinates": [[[[-23.6936,15.1965,789.5975],[-23.685,15.2065,643.5312],[-23.6846,15.214,485.4936],[-23.666,15.2331,158.1453],[-23.6592,15.2487,14.921],[-23.6643,15.2546,0.8794],[-23.6679,15.2515,22.4483],[-23.6676,15.2538,0.0],[-23.6715,15.2543,0.0],[-23.674,15.2574,0.0],[-23.6774,15.2574,0.0],[-23.6801,15.2596,9.26],[-23.6882,15.2735,2.884],[-23.6879,15.2793,0.0],[-23.6901,15.2807,7.6756],[-23.6907,15.2885,8.8281],[-23.6887,15.291,0.0],[-23.6871,15.2988,0.0],[-23.6904,15.2993,65.9846],[-23.6915,15.3024,4.2659],[-23.6896,15.304,31.1785],[-23.6846,15.3032,0.0],[-23.6815,15.3104,0.0],[-23.684,15.3129,76.8589],[-23.6832,15.3157,0.0],[-23.686,15.321,0.0],[-23.6951,15.3276,0.0],[-23.6943,15.3296,8.956],[-23.6965,15.3315,0.0],[-23.6985,15.3313,0.0],[-23.7001,15.3279,40.1104],[-23.7035,15.3279,52.982],[-23.7057,15.3293,0.0],[-23.7043,15.3329,0.0],[-23.7065,15.3321,7.1073],[-23.7068,15.3335,7.1073],[-23.711,15.3332,66.5019],[-23.716,15.3351,0.0],[-23.7179,15.3337,0.0],[-23.7171,15.3296,5.6458],[-23.7196,15.3304,7.8461],[-23.7215,15.3279,3.0666],[-23.7235,15.3287,3.7899],[-23.7243,15.3324,0.0],[-23.7326,15.3337,9.7864],[-23.7329,15.3363,0.0],[-23.7368,15.3349,4.8514],[-23.7393,15.3393,1.8104],[-23.7446,15.3404,5.7888],[-23.7449,15.3337,14.3299],[-23.7504,15.3329,5.6282],[-23.7529,15.3349,0.0],[-23.7529,15.3332,16.6269],[-23.7549,15.3324,11.2492],[-23.756,15.3337,24.6763],[-23.7579,15.3332,0.0],[-23.7585,15.3282,25.2767],[-23.7557,15.3243,5.8581],[-23.761,15.3235,0.0],[-23.759,15.3215,14.7277],[-23.759,15.319,17.6507],[-23.7624,15.3176,21.533],[-23.7646,15.321,0.0],[-23.7671,15.3199,7.6697],[-23.7657,15.3157,8.8298],[-23.7624,15.3162,6.6783],[-23.7588,15.3143,6.4858],[-23.7604,15.3062,0.0],[-23.7637,15.3049,3.0697],[-23.7663,15.3065,1.319],[-23.7693,15.3062,0.0],[-23.7749,15.2996,0.0],[-23.7721,15.2976,0.0],[-23.7715,15.2924,14.5458],[-23.7621,15.2913,0.7354],[-23.7607,15.2876,0.8303],[-23.7538,15.2835,0.0],[-23.754,15.281,0.0],[-23.7601,15.2785,0.0],[-23.7593,15.2674,3.6113],[-23.7563,15.261,1.835],[-23.7568,15.2585,0.6783],[-23.7521,15.2593,2.056],[-23.7488,15.2579,2.2203],[-23.741,15.2485,26.7071],[-23.7418,15.2349,0.0],[-23.7446,15.231,5.4478],[-23.7468,15.2307,0.0],[-23.7546,15.224,0.0864],[-23.7557,15.2126,0.0],[-23.7546,15.2093,4.0908],[-23.7579,15.1987,5.0199],[-23.7455,15.1985,251.9952],[-23.7382,15.2018,396.5792],[-23.7329,15.1991,387.1533],[-23.7282,15.1945,497.8483],[-23.7242,15.1938,579.1774],[-23.7222,15.1945,580.1799],[-23.7189,15.2071,294.612],[-23.7129,15.2051,306.9249],[-23.7109,15.2005,362.2302],[-23.7069,15.1965,355.8541],[-23.6936,15.1965,789.5975]]]]}}