{"type":"Feature","properties":{"ISO3166-1-Alpha-3":"CPV","country":"Cape Verde","fill":"#F0F","id":"5062","name":"Paul"},
"geometry":{"type": "Polygon","coordinates": [[[-24.98668,17.07886,274.9918],[-24.97899,17.0869,249.8925],[-24.97301,17.09663,273.8242],[-24.97126,17.10733,284.9978],[-24.97496,17.11449,0.0],[-24.98868,17.12572,0.0],[-24.99177,17.13093,0.0],[-24.99706,17.13418,0.0],[-25.02058,17.14037,282.5911],[-25.02587,17.14492,306.9604],[-25.03825,17.13837,209.3646],[-25.05412,17.12745,751.9232],[-25.07298,17.11356,1454.6179],[-25.02832,17.10562,1412.6692],[-25.00054,17.08776,703.6408],[-24.98668,17.07886,274.9918]]]}}