{"type":"Feature","properties":{"GID_1":"CPV.5_1","GID_0":"CPV","country":"CaboVerde","province":"Paúl","VARNAME_1":"NA","NL_NAME_1":"NA","TYPE_1":"Concelho","ENGTYPE_1":"County","CC_1":"NA","HASC_1":"CV.PA","ISO_1":"NA","name":"Paúl.province"},
"geometry":{"type": "MultiPolygon","coordinates": [[[[-24.9776,17.0702,0.0],[-24.9746,17.0732,0.0],[-24.9737,17.0768,0.0],[-24.969,17.0793,0.0],[-24.9687,17.0824,6.8525],[-24.9629,17.0882,0.0],[-24.9646,17.0932,1.7146],[-24.9624,17.0954,0.0],[-24.965699999999998,17.0965,45.9819],[-24.9646,17.1049,0.0],[-24.9662,17.114,0.0],[-24.9704,17.1165,0.0],[-24.9735,17.1132,23.9094],[-24.9762,17.1165,0.0],[-24.9849,17.1182,23.4803],[-24.9849,17.1229,0.0],[-24.9904,17.1196,31.0012],[-24.9929,17.121,1.2616],[-24.9921,17.1238,0.0],[-24.996,17.1238,17.2716],[-24.999,17.1262,53.6544],[-25.0012,17.1307,0.0],[-25.0043,17.1329,0.0],[-25.0049,17.1379,4.1599],[-25.0112,17.1424,0.0],[-25.0129,17.1449,120.9577],[-25.0129,17.1499,7.7158],[-25.0171,17.1535,13.5229],[-25.0132,17.1579,0.0],[-25.0154,17.1596,0.0],[-25.0149,17.1635,0.0],[-25.0165,17.1674,0.0],[-25.0154,17.1699,4.2749],[-25.0201,17.1726,0.0],[-25.0223,17.1697,186.2594],[-25.0257,17.156,651.7659],[-25.0376,17.1492,869.9384],[-25.0541,17.1304,904.326],[-25.0632,17.1162,1432.1384],[-25.0666,17.1146,1455.9801],[-25.0615,17.111,1216.9613],[-25.0604,17.1071,1168.7402],[-25.0553,17.1048,1372.0342],[-25.0456,17.1065,1326.0186],[-25.0302,17.1065,1417.3976],[-25.0206,17.1036,1103.4779],[-24.9776,17.0702,0.0]]]]}}