{"type":"Feature","properties":{"ISO3166-1-Alpha-3":"CPV","country":"Cape Verde","fill":"#FF0","id":"5052","name":"Ribeira Grande de Santiago"},
"geometry":{"type": "Polygon","coordinates": [[[-23.59619,15.01166,672.995],[-23.61169,15.02495,831.1997],[-23.61204,15.04092,604.2704],[-23.62941,15.03934,978.147],[-23.63938,15.02827,709.3549],[-23.64159,15.01387,560.1437],[-23.64934,15.00944,335.389],[-23.67038,15.00723,425.8907],[-23.67924,14.99394,352.9861],[-23.69806,14.98619,218.1832],[-23.71508,14.96845,0.0],[-23.6765,14.93553,0.0],[-23.64973,14.9265,0.0],[-23.62413,14.91812,31.9919],[-23.59642,14.91454,121.4419],[-23.56322,14.9138,55.6281],[-23.55582,14.91279,61.0418],[-23.54735,14.90851,40.2619],[-23.5393,14.90762,47.2469],[-23.54763,14.92571,63.5874],[-23.56046,14.94176,145.187],[-23.56408,14.96072,200.3156],[-23.58069,14.96847,294.9545],[-23.58401,14.99505,456.3493],[-23.59619,15.01166,672.995]]]}}