{"type": "Feature","bbox": [-23.7121,14.9029,-23.506,15.0601],"geometry": {"type": "MultiPolygon","coordinates": [[[[-23.5074,14.9093,0.0],[-23.5085,14.9082,5.1516],[-23.5065,14.9054,0.0],[-23.506,14.9074,0.0],[-23.5074,14.9093,0.0]]],
[[[-23.5865,14.9571,264.3259],[-23.5872,14.9762,329.4575],[-23.5925,14.9762,352.5986],[-23.6005,14.9789,387.9586],[-23.6218,14.9915,538.3781],[-23.6238,14.9975,624.3077],[-23.6184,15.0055,650.7487],[-23.6171,15.0221,786.9081],[-23.6198,15.0295,874.5607],[-23.6257,15.0348,1015.3035],[-23.6271,15.0392,913.1984],[-23.6317,15.0408,939.1971],[-23.6425,15.0574,1074.7936],[-23.651,15.0601,1000.0966],[-23.6564,15.0601,828.6442],[-23.6623,15.0561,939.5251],[-23.6657,15.0381,800.1064],[-23.683,15.0381,525.3593],[-23.687,15.0361,529.7375],[-23.691,15.0308,446.1752],[-23.6903,15.0241,305.3856],[-23.6956,15.0148,334.6498],[-23.6963,15.0108,195.4129],[-23.6963,15.0075,153.2681],[-23.691,15.0008,312.5908],[-23.693,14.9982,221.8516],[-23.6989,14.9969,98.8921],[-23.7121,14.9799,33.6178],[-23.7121,14.9762,13.9699],[-23.7062,14.9715,58.6379],[-23.7043,14.9649,0.0],[-23.6946,14.9585,3.3441],[-23.694,14.9543,0.0],[-23.6921,14.9543,2.5616],[-23.6921,14.9524,0.0],[-23.686,14.951,2.0069],[-23.6782,14.9424,1.9801],[-23.6751,14.9412,13.5459],[-23.6751,14.9396,3.6942],[-23.671,14.9385,21.7175],[-23.6701,14.9365,0.0],[-23.6668,14.9379,14.3815],[-23.6662,14.9357,2.2407],[-23.661,14.9371,14.7448],[-23.6526,14.9282,0.0],[-23.6435,14.9229,0.0],[-23.6279,14.9193,13.0837],[-23.6271,14.916,9.9295],[-23.6285,14.9143,0.0],[-23.6254,14.9101,0.0],[-23.6221,14.9099,0.0],[-23.621,14.9129,5.1425],[-23.6165,14.9143,1.9471],[-23.6112,14.9135,0.0],[-23.6085,14.9157,20.9425],[-23.6037,14.9115,0.0],[-23.5999,14.9124,9.2014],[-23.5915,14.9099,6.0658],[-23.591,14.9068,0.0],[-23.5857,14.9068,0.0],[-23.5849,14.909,66.6068],[-23.579,14.9104,0.0],[-23.5735,14.9093,7.1067],[-23.5726,14.9063,0.0],[-23.5699,14.9074,0.0],[-23.5696,14.9096,0.0],[-23.5676,14.9079,0.0],[-23.5649,14.9099,2.1392],[-23.564,14.9079,0.7296],[-23.561,14.9074,2.6008],[-23.5582,14.9088,13.3306],[-23.5554,14.9032,0.5262],[-23.5521,14.9029,1.2775],[-23.5865,14.9571,264.3259]]]]}
,"properties": {"GID_1": "CPV.10_1","GID_0": "CPV","country": "CaboVerde","province": "RibeiraGrandedeSantiago","VARNAME_1": "NA","NL_NAME_1": "NA","TYPE_1": "Concelho","ENGTYPE_1": "County","CC_1": "NA","HASC_1": "CV.RS","ISO_1": "CV-RS","name": "Ribeira_Grandede_Santiago.province","area_km2": 141.7565,"hist_schema_id": "Elevation0-9000","hist_area_km2": {"0": 2.8681,"25": 5.7977,"50": 6.3507,"75": 5.9409,"100": 5.9203,"125": 6.289,"150": 6.3093,"175": 6.678,"200": 6.8213,"225": 5.7763,"250": 5.8787,"275": 5.4279,"300": 4.8953,"325": 6.1856,"350": 6.759,"375": 6.0624,"400": 5.5093,"425": 4.7513,"450": 4.7717,"475": 3.1538,"500": 2.867,"525": 2.8465,"550": 2.1297,"575": 1.9454,"600": 2.1297,"625": 1.7611,"650": 1.4744,"675": 1.6996,"700": 1.2696,"725": 1.0443,"750": 1.3719,"775": 0.9419,"800": 0.9419,"825": 0.9624,"850": 0.9624,"875": 0.8805,"900": 0.9624,"925": 0.7371,"950": 0.7166,"975": 0.4709,"1000": 0.389,"1025": 0.1843,"1050": 0.2662,"1075": 0.1433,"1100": 0.1228,"1125": 0.0819,"1150": 0.1228,"1175": 0.1024,"1200": 0.0819}}}