{"type": "Feature","bbox": [-24.7496,14.8018,-24.629,14.9846],"geometry": {"type": "MultiPolygon","coordinates": [[[[-24.6824,14.9007,0.0],[-24.6837,14.9007,0.0],[-24.6849,14.8974,19.6529],[-24.6868,14.9004,0.0],[-24.6926,14.9001,2.2672],[-24.6924,14.8957,0.0],[-24.6943,14.8943,4.6903],[-24.7026,14.894,0.0],[-24.7093,14.8918,0.0],[-24.7143,14.886,31.7602],[-24.7176,14.8871,2.5192],[-24.7174,14.8888,0.0],[-24.7196,14.8907,0.0],[-24.7221,14.8876,20.9676],[-24.7229,14.8893,0.0],[-24.7265,14.8879,0.0],[-24.7274,14.8888,0.5549],[-24.7257,14.8899,0.0],[-24.7285,14.8924,0.0],[-24.7282,14.8876,1.9558],[-24.7324,14.8843,2.7162],[-24.7332,14.8815,12.6406],[-24.7357,14.8826,0.0],[-24.736,14.8763,0.0],[-24.7349,14.874,4.0155],[-24.7318,14.8738,73.1754],[-24.7324,14.869,23.0381],[-24.7362,14.8665,14.0582],[-24.7396,14.8682,0.5989],[-24.7426,14.8665,4.0439],[-24.744,14.869,0.0],[-24.7462,14.8668,2.836],[-24.7488,14.8676,0.0],[-24.7474,14.8651,13.4475],[-24.7488,14.8646,1.0814],[-24.7479,14.8607,9.6374],[-24.7496,14.8585,0.0],[-24.7457,14.8549,0.5495],[-24.7485,14.854,0.0],[-24.749,14.8515,48.6239],[-24.7449,14.8485,9.859],[-24.746,14.8399,80.0442],[-24.7482,14.8404,13.6545],[-24.7482,14.8335,0.0],[-24.7418,14.8282,0.0],[-24.7399,14.8324,16.0218],[-24.7374,14.8329,24.0785],[-24.7321,14.826,76.749],[-24.7307,14.821,20.3871],[-24.7262,14.8174,7.2721],[-24.726,14.8137,0.8993],[-24.7215,14.8137,9.1107],[-24.7221,14.8124,9.1107],[-24.7201,14.8121,53.0071],[-24.7199,14.8099,0.0],[-24.716,14.8101,10.2697],[-24.715699999999998,14.8074,1.1194],[-24.7138,14.8093,27.0995],[-24.7121,14.8076,0.0],[-24.7112,14.8096,2.7372],[-24.7049,14.8107,54.5935],[-24.7043,14.8068,10.4024],[-24.7062,14.8049,16.6411],[-24.7024,14.8018,0.0],[-24.7004,14.8026,7.2847],[-24.7004,14.8049,20.9122],[-24.6974,14.8051,0.0],[-24.6976,14.8079,14.3566],[-24.6963,14.8068,0.0],[-24.694,14.809,83.7046],[-24.6913,14.8085,0.0],[-24.6899,14.811,51.7548],[-24.6882,14.811,6.2298],[-24.6887,14.8124,66.8942],[-24.6868,14.8121,0.0],[-24.6865,14.8146,6.7037],[-24.6854,14.8137,0.0],[-24.6815,14.8163,3.9962],[-24.6796,14.8154,0.0],[-24.6776,14.8185,0.0],[-24.6737,14.819,4.7325],[-24.6746,14.8204,4.7325],[-24.6724,14.8265,0.0],[-24.6737,14.8296,20.2253],[-24.6701,14.8304,0.0],[-24.6679,14.8335,0.0],[-24.671,14.8382,0.0],[-24.6696,14.8382,0.0],[-24.6688,14.8413,0.0],[-24.6646,14.8424,3.5863],[-24.6643,14.844,0.0],[-24.6668,14.8457,0.0],[-24.666,14.8482,0.0],[-24.6679,14.8468,9.9137],[-24.6699,14.849,1.1419],[-24.6679,14.8515,0.0],[-24.6668,14.8582,0.0],[-24.6682,14.8621,0.0],[-24.6724,14.8651,16.7468],[-24.6749,14.874,0.0],[-24.6776,14.8743,4.2652],[-24.6782,14.8826,11.2251],[-24.6771,14.8846,0.0],[-24.6799,14.8854,62.72],[-24.6793,14.8876,20.4531],[-24.6763,14.8871,10.1498],[-24.6754,14.8896,1.7934],[-24.6724,14.891,2.0027],[-24.6737,14.8926,0.0],[-24.6782,14.8932,8.3681],[-24.6796,14.8954,16.4546],[-24.6829,14.894,5.4235],[-24.6837,14.8954,98.2279],[-24.6804,14.8979,33.1096],[-24.6824,14.9007,0.0]]],
[[[-24.6829,14.9779,1.3796],[-24.684,14.9785,2.308],[-24.6849,14.9751,4.5178],[-24.6863,14.9749,1.9882],[-24.6863,14.9776,0.0],[-24.6879,14.9782,0.0],[-24.6915,14.9749,0.5384],[-24.6913,14.9732,9.2347],[-24.694,14.9729,0.0],[-24.6929,14.971,4.3805],[-24.6957,14.9688,3.6481],[-24.6954,14.9654,20.8182],[-24.6979,14.9671,0.0],[-24.6982,14.9646,0.0],[-24.6954,14.9601,0.0],[-24.6924,14.959,4.9453],[-24.6876,14.9604,0.0],[-24.6832,14.9643,0.0],[-24.6846,14.9654,23.0865],[-24.6824,14.9676,3.828],[-24.6832,14.9699,0.0],[-24.6818,14.9693,0.0],[-24.6793,14.9718,0.0],[-24.6796,14.976,8.7669],[-24.6829,14.9779,1.3796]]],
[[[-24.6574,14.9721,0.0],[-24.659,14.9724,0.0],[-24.6574,14.9699,5.491],[-24.6626,14.971,0.0],[-24.6632,14.9676,0.0],[-24.656,14.9679,1.4554],[-24.6574,14.9721,0.0]]],
[[[-24.6479,14.9726,0.0],[-24.6501,14.9729,0.0],[-24.6501,14.9696,1.8851],[-24.6471,14.9687,0.0],[-24.6465,14.9699,0.0],[-24.6479,14.9726,0.0]]],
[[[-24.634,14.9846,0.0],[-24.6365,14.9843,0.0],[-24.6351,14.9774,7.4122],[-24.6365,14.9737,0.7603],[-24.6413,14.9715,0.0],[-24.6418,14.9696,3.5969],[-24.6446,14.9699,0.0],[-24.6474,14.9651,0.0],[-24.6443,14.9668,25.6143],[-24.641,14.9632,0.0],[-24.639,14.9654,0.0],[-24.6385,14.9696,10.452],[-24.6376,14.9682,0.0],[-24.6365,14.9696,6.4934],[-24.6354,14.9687,0.0],[-24.6318,14.9724,0.0],[-24.6332,14.9749,0.0],[-24.6296,14.9737,0.0],[-24.629,14.9788,0.0],[-24.6312,14.979,0.7815],[-24.634,14.9846,0.0]]]]}
,"properties": {"GID_1": "CPV.2_1","GID_0": "CPV","country": "CaboVerde","province": "Brava","VARNAME_1": "NA","NL_NAME_1": "NA","TYPE_1": "Concelho","ENGTYPE_1": "County","CC_1": "NA","HASC_1": "CV.BR","ISO_1": "CV-BR","name": "Brava.province","area_km2": 69.59494,"hist_schema_id": "Elevation0-9000","hist_area_km2": {"0": 5.57299,"25": 3.2579,"50": 2.43833,"75": 1.98784,"100": 1.78292,"125": 2.35676,"150": 1.92643,"175": 1.8034,"200": 2.52067,"225": 2.29532,"250": 1.92643,"275": 2.25434,"300": 2.31578,"325": 2.19288,"350": 2.19283,"375": 1.72147,"400": 1.59856,"425": 1.49605,"450": 2.09046,"475": 2.02886,"500": 1.98791,"525": 1.59857,"550": 1.45505,"575": 2.06992,"600": 2.64377,"625": 2.52081,"650": 2.27488,"675": 1.70103,"700": 0.92224,"725": 1.10668,"750": 1.14765,"775": 1.16815,"800": 0.86075,"825": 0.6763,"850": 0.57383,"875": 0.47136,"900": 0.43037,"925": 0.16395,"950": 0.06148}}}