{"type":"Feature","properties":{"ISO3166-1-Alpha-3":"CPV","country":"Cape Verde","fill":"#F0F","id":"5041","name":"Brava"},
"geometry":{"type": "Polygon","coordinates": [[[-24.70434,14.90082,0.0],[-24.71935,14.89444,0.0],[-24.73762,14.89204,0.0],[-24.74942,14.88548,0.0],[-24.74535,14.86664,16.4282],[-24.75894,14.86664,0.0],[-24.75471,14.85786,0.0],[-24.75324,14.84935,0.0],[-24.75471,14.84081,0.0],[-24.75894,14.83185,0.0],[-24.75154,14.83877,0.0],[-24.74462,14.82661,0.0],[-24.72545,14.81411,8.6177],[-24.71801,14.80394,0.0],[-24.71056,14.80394,0.0],[-24.70442,14.81403,159.1599],[-24.6953,14.8194,469.2264],[-24.68688,14.82665,355.4754],[-24.68326,14.84247,362.5869],[-24.68395,14.85944,452.1684],[-24.68676,14.87617,334.0023],[-24.6931,14.89069,177.2245],[-24.70434,14.90082,0.0]]]}}