{"type": "Feature","id": "5059","bbox": [-25.09415,16.60551,-24.56951,16.923],"geometry": {"type": "MultiPolygon","coordinates": [[[[-24.56951,16.61997,0.0],[-24.59266,16.62431,31.4724],[-24.60423,16.62142,0.0],[-24.60134,16.60985,2.7972],[-24.58977,16.60695,0.0],[-24.5753,16.60551,0.0],[-24.56951,16.61997,0.0]]],
[[[-24.72576,16.75741,0.8354],[-24.73589,16.77911,0.0],[-24.74891,16.79358,2.9526],[-24.7735,16.80226,16.0771],[-24.78797,16.78924,0.0],[-24.78797,16.77477,0.0],[-24.7735,16.76175,0.0],[-24.75469,16.75452,0.0],[-24.74891,16.74294,0.0],[-24.74023,16.73426,0.0],[-24.72286,16.73426,0.0],[-24.70261,16.73571,0.0],[-24.68525,16.74294,0.0],[-24.6838,16.75596,0.0],[-24.69538,16.7603,0.0],[-24.70695,16.75307,0.8666],[-24.72576,16.75741,0.8354]]],
[[[-24.92772,16.91779,6.4819],[-24.93773,16.923,0.0],[-24.95519,16.91079,0.0],[-24.9652,16.90892,29.4481],[-24.97126,16.923,0.0],[-24.9781,16.923,0.0],[-24.984,16.91596,0.0],[-25.0122,16.90127,0.0],[-25.00597,16.88768,0.0],[-25.01879,16.88203,0.0],[-25.05012,16.88142,25.7219],[-25.06359,16.87702,0.0],[-25.0782,16.86506,0.0],[-25.08975,16.84748,0.0],[-25.09415,16.82616,0.0],[-25.08113,16.83234,26.4278],[-25.07616,16.82246,0.0],[-25.06823,16.81509,0.0],[-25.05818,16.80964,0.0],[-24.99523,16.78612,176.0315],[-24.98803,16.78514,354.696],[-24.9842,16.78734,135.1697],[-24.97452,16.7967,49.2803],[-24.96813,16.7989,74.8501],[-24.94286,16.80048,131.8153],[-24.91552,16.80549,340.4798],[-24.8911,16.81395,15.3961],[-24.87507,16.82616,119.1253],[-24.87361,16.83592,27.1376],[-24.87629,16.84984,11.3048],[-24.88109,16.86229,0.0],[-24.88589,16.86774,0.0],[-24.90014,16.87202,0.0],[-24.91446,16.88142,25.3949],[-24.92292,16.89081,25.6937],[-24.91975,16.89509,11.8169],[-24.9147,16.89916,2.2218],[-24.91877,16.90827,15.3546],[-24.92772,16.91779,6.4819]]]]}
,"properties": {"ISO3166-1-Alpha-3": "CPV","country": "Cape Verde","fill": "#F0F","name": "São Vicente","area_km2": 265.1588,"hist_schema_id": "Elevation0-9000","hist_area_km2": {"0": 44.2605,"25": 38.9469,"50": 34.0127,"75": 28.7969,"100": 24.4128,"125": 20.334,"150": 16.0114,"175": 12.4803,"200": 10.2278,"225": 7.9347,"250": 5.8039,"275": 4.4646,"300": 4.0992,"325": 2.8207,"350": 2.0698,"375": 1.8669,"400": 1.2378,"425": 0.8929,"450": 0.8726,"475": 0.7711,"500": 0.8929,"525": 0.3856,"550": 0.4668,"575": 0.3044,"600": 0.3247,"625": 0.1826,"650": 0.142,"675": 0.1014,"700": 0.0406}}}