{"type": "Feature","bbox": [-25.086,16.6071,-24.5718,16.9226],"geometry": {"type": "MultiPolygon","coordinates": [[[[-24.5824,16.6304,0.0],[-24.594,16.6249,5.1318],[-24.6001,16.6262,0.0],[-24.6018,16.6246,0.0],[-24.6046,16.6176,0.3093],[-24.5999,16.6087,0.0],[-24.5901,16.609,13.7817],[-24.5857,16.6071,6.0477],[-24.579,16.6079,1.9753],[-24.5785,16.6113,2.7297],[-24.5743,16.6146,0.0],[-24.5718,16.6226,0.0],[-24.574,16.6262,0.0],[-24.5793,16.6268,17.2097],[-24.5824,16.6304,0.0]]],
[[[-24.6787,16.671,0.0],[-24.6821,16.6707,0.0],[-24.684,16.6665,0.0],[-24.6796,16.661,0.0],[-24.6665,16.6488,21.4025],[-24.6624,16.649,53.9848],[-24.6551,16.6454,0.0],[-24.6638,16.6593,6.7435],[-24.6715,16.664,48.902],[-24.6787,16.671,0.0]]],
[[[-24.7757,16.8065,0.0],[-24.7776,16.8065,0.0],[-24.7771,16.8046,3.9838],[-24.7812,16.7985,22.6945],[-24.7843,16.7974,7.8426],[-24.7849,16.7913,0.0],[-24.7879,16.7857,1.6883],[-24.7912,16.7843,0.1227],[-24.786,16.769,0.4036],[-24.7796,16.7663,0.8875],[-24.7743,16.7676,3.7349],[-24.7585,16.7599,0.2367],[-24.746,16.7471,2.2199],[-24.7449,16.7363,0.684],[-24.7307,16.7368,1.4219],[-24.7207,16.7351,0.0],[-24.7204,16.7365,2.0562],[-24.715699999999998,16.7363,0.0],[-24.7138,16.7388,5.481],[-24.7018,16.7368,0.0],[-24.6979,16.7401,0.0],[-24.6907,16.739,3.514],[-24.6904,16.7412,4.9314],[-24.6846,16.7468,0.0],[-24.6829,16.754,0.0],[-24.6857,16.7565,0.0],[-24.6999,16.7563,0.0],[-24.7104,16.7512,2.4994],[-24.7165,16.7512,3.5469],[-24.7224,16.7535,2.2161],[-24.729,16.7607,6.7388],[-24.7307,16.7638,0.0],[-24.7293,16.7663,0.0],[-24.7315,16.7679,3.0038],[-24.7351,16.776,15.1884],[-24.744,16.779,12.9556],[-24.7451,16.7846,0.0],[-24.7482,16.7888,0.0],[-24.7474,16.7938,0.0],[-24.7488,16.7951,0.5972],[-24.7624,16.799,2.2928],[-24.7657,16.8004,11.6833],[-24.7668,16.8026,0.0],[-24.7704,16.8024,5.5356],[-24.7757,16.8065,0.0]]],
[[[-24.9182,16.9224,0.0],[-24.9326,16.9212,0.9968],[-24.9321,16.9193,0.9506],[-24.9301,16.9196,1.3189],[-24.9307,16.9174,1.0033],[-24.9326,16.9176,1.0033],[-24.934,16.9151,1.8758],[-24.9387,16.9135,2.1475],[-24.9363,16.909,1.3986],[-24.9454,16.9046,4.9787],[-24.9504,16.9051,18.8991],[-24.9599,16.9096,42.0171],[-24.9618,16.9149,7.9849],[-24.966,16.9132,6.3269],[-24.9662,16.9151,5.9862],[-24.961,16.9204,0.0],[-24.9632,16.9226,0.0],[-24.9671,16.9188,16.9491],[-24.9701,16.9193,0.0],[-24.9743,16.9176,0.0],[-24.9774,16.9099,84.8586],[-24.9907,16.9112,0.0],[-24.9899,16.9082,33.2745],[-24.9912,16.9057,6.9462],[-24.9993,16.9057,0.0],[-24.9982,16.9029,0.7721],[-24.9968,16.9029,0.7721],[-24.9985,16.9004,0.0],[-24.9929,16.8979,6.4933],[-24.9924,16.8935,3.4877],[-24.9946,16.8913,3.8371],[-24.9982,16.8924,0.0],[-25.0004,16.8879,0.0],[-24.9979,16.8876,0.0],[-24.996,16.8896,3.6639],[-24.9949,16.8871,0.9866],[-24.9921,16.8865,0.0],[-24.9924,16.8882,0.7141],[-24.9904,16.8888,21.4578],[-24.9899,16.8849,4.0926],[-24.9988,16.876,0.8273],[-25.0021,16.8765,0.285],[-25.0082,16.8746,1.2222],[-25.0093,16.8718,3.208],[-25.0235,16.8793,28.0577],[-25.024,16.8843,9.9286],[-25.026,16.8871,0.0],[-25.0329,16.8874,0.0],[-25.0382,16.8824,0.0],[-25.044,16.8846,0.0],[-25.044,16.8799,30.4612],[-25.0524,16.8838,0.0],[-25.0496,16.8771,23.486],[-25.0549,16.8768,31.9511],[-25.0546,16.8749,75.865],[-25.0574,16.8721,0.0],[-25.0554,16.869,137.7443],[-25.0557,16.8657,28.3213],[-25.0632,16.8626,14.6996],[-25.0662,16.8657,0.0],[-25.0674,16.8615,4.9114],[-25.0718,16.861,17.4593],[-25.0721,16.8532,63.5988],[-25.0757,16.8515,0.0],[-25.0774,16.8476,0.0],[-25.0843,16.8454,0.0],[-25.084,16.8426,0.0],[-25.0785,16.8399,4.9907],[-25.0782,16.8379,34.7677],[-25.081,16.8365,0.0],[-25.0807,16.8346,101.3103],[-25.086,16.8262,0.4549],[-25.0701,16.8293,2.7231],[-25.0643,16.8279,5.9341],[-25.0613,16.824,3.7559],[-25.0607,16.8115,0.0],[-25.0565,16.809,4.601],[-25.0521,16.8032,0.0],[-25.0449,16.8079,4.2955],[-25.0396,16.8035,29.4823],[-25.0393,16.8015,0.0],[-25.0335,16.8032,5.3447],[-25.0276,16.799,13.2584],[-25.0218,16.7988,5.7635],[-25.0151,16.7926,0.0],[-25.0096,16.7932,0.0],[-25.0079,16.791,4.5322],[-25.0049,16.7907,41.3173],[-25.0049,16.7888,0.0],[-25.0015,16.7854,0.0],[-24.9968,16.7854,0.0],[-24.9968,16.784,0.0],[-24.9907,16.7804,0.0],[-24.9885,16.781,13.52],[-24.9887,16.7793,0.0],[-24.984,16.7765,4.5305],[-24.9754,16.7774,4.5154],[-24.974,16.7785,4.5154],[-24.974,16.7835,8.6902],[-24.9715,16.7857,9.7731],[-24.956,16.786,4.9409],[-24.9551,16.7896,1.1049],[-24.9479,16.7929,2.694],[-24.9412,16.7915,0.0],[-24.931,16.7946,41.8758],[-24.9224,16.7949,0.0],[-24.9201,16.7968,0.0],[-24.916,16.7965,0.0],[-24.9154,16.7985,0.0],[-24.9054,16.8037,0.0],[-24.9054,16.8051,0.0],[-24.901,16.8068,0.0],[-24.8999,16.809,21.8299],[-24.8935,16.8113,2.6836],[-24.8876,16.8096,0.3126],[-24.8807,16.8113,4.1848],[-24.8743,16.809,2.1452],[-24.8712,16.8121,5.9929],[-24.8643,16.8137,0.0],[-24.8621,16.8174,0.0],[-24.8615,16.8321,3.7522],[-24.859,16.836,0.6774],[-24.8612,16.8374,0.0],[-24.8643,16.8368,3.5355],[-24.8662,16.8401,1.6635],[-24.8646,16.8426,0.0],[-24.8674,16.8449,2.1433],[-24.8687,16.8501,0.2449],[-24.8635,16.854,21.0329],[-24.8601,16.8546,0.0],[-24.859,16.8585,3.299],[-24.8601,16.8621,0.0],[-24.8662,16.8654,3.1121],[-24.8732,16.8643,0.0],[-24.876,16.861,0.0],[-24.8846,16.8621,0.0],[-24.8957,16.8671,0.0],[-24.9085,16.8771,1.8157],[-24.914,16.8854,0.0],[-24.9143,16.891,2.312],[-24.9118,16.8951,0.1519],[-24.9096,16.8954,0.0],[-24.9137,16.8996,0.0],[-24.9096,16.9015,1.5739],[-24.909,16.8996,0.0],[-24.9068,16.899,0.0],[-24.9079,16.9029,0.0],[-24.906,16.9051,0.5641],[-24.9037,16.9035,0.0],[-24.9035,16.9062,0.0],[-24.9082,16.916,2.3476],[-24.9182,16.9224,0.0]]],
[[[-25.0104,16.909,0.0],[-25.0104,16.911,0.0],[-25.0115,16.9112,0.2466],[-25.0121,16.9093,0.3155],[-25.0104,16.909,0.0]]]]}
,"properties": {"GID_1": "CPV.20_1","GID_0": "CPV","country": "CaboVerde","province": "SãoVicente","VARNAME_1": "NA","NL_NAME_1": "NA","TYPE_1": "Concelho","ENGTYPE_1": "County","CC_1": "NA","HASC_1": "CV.SV","ISO_1": "NA","name": "São_Vicente.province","area_km2": 270.4817,"hist_schema_id": "Elevation0-9000","hist_area_km2": {"0": 26.7886,"25": 48.7901,"50": 37.4432,"75": 31.172,"100": 25.9759,"125": 21.613,"150": 17.0264,"175": 13.3127,"200": 10.9384,"225": 8.3408,"250": 6.2507,"275": 4.83,"300": 4.2617,"325": 2.9628,"350": 2.2525,"375": 1.8872,"400": 1.2581,"425": 0.8929,"450": 0.8726,"475": 0.7711,"500": 0.8929,"525": 0.3856,"550": 0.4668,"575": 0.3044,"600": 0.3247,"625": 0.1826,"650": 0.142,"675": 0.1014,"700": 0.0406}}}