{"type": "Feature","id": "5058","bbox": [-24.43065,16.48265,-24.31442,16.67712],"geometry": {"type": "Polygon","coordinates": [[[-24.3247,16.48265,2.2931],[-24.32601,16.51257,127.7502],[-24.32022,16.55481,316.3199],[-24.31442,16.58132,631.4901],[-24.32022,16.61279,550.8763],[-24.33844,16.6277,692.6533],[-24.3666,16.62935,675.8755],[-24.37654,16.6426,496.9824],[-24.3666,16.65586,316.887],[-24.37562,16.67712,0.0],[-24.4226,16.6623,0.0],[-24.43065,16.63947,0.0],[-24.42471,16.61713,7.4859],[-24.40827,16.60017,9.4424],[-24.38508,16.59341,97.6116],[-24.37609,16.59178,199.6884],[-24.37092,16.58714,232.7078],[-24.36856,16.57954,24.6562],[-24.36791,16.56916,0.0],[-24.36563,16.55561,0.0],[-24.36018,16.54719,0.0],[-24.35338,16.54043,0.0],[-24.34748,16.53197,0.0],[-24.3334,16.49494,0.0],[-24.3247,16.48265,2.2931]]]}
,"properties": {"ISO3166-1-Alpha-3": "CPV","country": "Cape Verde","fill": "#FF0","name": "Tarrafal de São Nicolau","area_km2": 106.40797,"hist_schema_id": "Elevation0-9000","hist_area_km2": {"0": 16.19493,"25": 5.5677,"50": 4.55132,"75": 4.2264,"100": 3.4338,"125": 4.75445,"150": 4.084,"175": 3.6372,"200": 3.2104,"225": 2.86497,"250": 3.10873,"275": 3.04779,"300": 2.56021,"325": 2.3569,"350": 2.31627,"375": 2.51949,"400": 2.60077,"425": 3.00713,"450": 2.53977,"475": 2.174,"500": 2.29593,"525": 2.51944,"550": 2.7632,"575": 2.03178,"600": 2.35679,"625": 1.60507,"650": 1.72698,"675": 1.54409,"700": 1.50346,"725": 1.30028,"750": 1.19869,"775": 0.83298,"800": 0.9549,"825": 0.91425,"850": 0.40633,"875": 0.62981,"900": 0.3657,"925": 0.40633,"950": 0.32506,"975": 0.2438,"1000": 0.34538,"1025": 0.24379,"1050": 0.30474,"1075": 0.16253,"1100": 0.10158,"1125": 0.14221,"1150": 0.10158,"1175": 0.1219,"1200": 0.02032,"1225": 0.08126,"1250": 0.08126,"1275": 0.02032}}}