{"type":"Feature","properties":{"GID_1":"CPV.22_1","GID_0":"CPV","country":"CaboVerde","province":"TarrafaldeSãoNicolau","VARNAME_1":"NA","NL_NAME_1":"NA","TYPE_1":"Concelho","ENGTYPE_1":"County","CC_1":"NA","HASC_1":"CV.TS","ISO_1":"NA","name":"Tarrafalde_São_Nicolau.province"},
"geometry":{"type": "MultiPolygon","coordinates": [[[[-24.3582,16.6693,0.0],[-24.3626,16.6671,18.8277],[-24.364,16.6682,0.0],[-24.3676,16.6671,0.0],[-24.3713,16.6707,0.0],[-24.3785,16.6699,20.7751],[-24.3799,16.6715,0.3764],[-24.3818,16.669,2.2816],[-24.3893,16.6682,2.8621],[-24.3913,16.6637,9.0689],[-24.3937,16.6643,0.0],[-24.4001,16.6593,0.0],[-24.4065,16.6599,0.0],[-24.4099,16.6565,5.3696],[-24.4165,16.6571,0.0],[-24.4199,16.6554,1.765],[-24.4171,16.6515,2.8286],[-24.4215,16.6526,0.0],[-24.4254,16.6474,3.6831],[-24.4274,16.6399,0.0],[-24.4251,16.634,19.2123],[-24.4274,16.6276,0.0],[-24.4263,16.6143,3.9347],[-24.4229,16.6115,0.0],[-24.4174,16.6104,4.1491],[-24.4193,16.6046,0.0],[-24.4135,16.6021,14.9474],[-24.4093,16.5963,0.0],[-24.3888,16.5857,8.5948],[-24.384,16.5815,0.0],[-24.3701,16.5807,44.6737],[-24.3632,16.5765,10.9707],[-24.3615,16.5718,0.5096],[-24.359,16.5701,0.0],[-24.3587,16.5676,0.0],[-24.3607,16.5665,0.0],[-24.3579,16.5646,3.5949],[-24.3593,16.5621,0.0],[-24.3582,16.5574,3.5161],[-24.3596,16.5568,1.0665],[-24.3593,16.554,0.4582],[-24.3568,16.5513,0.0],[-24.3504,16.5501,0.0],[-24.3487,16.5462,0.0],[-24.3493,16.5429,0.0],[-24.3471,16.5404,0.0],[-24.3479,16.5371,0.0],[-24.3465,16.5365,0.0],[-24.346,16.5312,2.9596],[-24.3438,16.5307,7.763],[-24.3415,16.5265,0.5253],[-24.3346,16.5238,33.9213],[-24.3315,16.5174,24.297],[-24.3285,16.5035,1.9008],[-24.3249,16.4996,9.9101],[-24.3246,16.4954,10.3896],[-24.3274,16.4932,7.7444],[-24.326,16.4885,13.8461],[-24.3282,16.4876,0.6976],[-24.3276,16.4821,8.7267],[-24.326,16.4807,0.2765],[-24.3229,16.4854,0.0],[-24.3191,16.484,10.8088],[-24.3082,16.519,284.5258],[-24.3026,16.5264,69.7561],[-24.3039,16.5627,630.6201],[-24.3149,16.5947,657.231],[-24.3242,16.6046,604.045],[-24.3346,16.6101,772.7886],[-24.3494,16.6113,783.8675],[-24.358,16.6199,1027.6472],[-24.3599,16.6255,1013.5125],[-24.35,16.6402,590.0077],[-24.3549,16.6446,620.1144],[-24.3623,16.6606,103.8912],[-24.3582,16.6693,0.0]]]]}}