{"type": "Feature","id": "5057","bbox": [-24.37654,16.48265,-24.03283,16.68159],"geometry": {"type": "Polygon","coordinates": [[[-24.06753,16.61392,0.0],[-24.09,16.62246,0.0],[-24.17247,16.6291,0.0],[-24.18057,16.63085,0.8267],[-24.21711,16.64769,0.0],[-24.2268,16.6496,0.0],[-24.28238,16.64134,0.0],[-24.29284,16.64183,76.6932],[-24.30517,16.64789,304.199],[-24.32868,16.66779,325.6514],[-24.34057,16.67536,257.2148],[-24.35424,16.68061,0.0],[-24.36148,16.68159,0.0],[-24.37562,16.67712,0.0],[-24.3666,16.65586,316.887],[-24.37654,16.6426,496.9824],[-24.3666,16.62935,675.8755],[-24.33844,16.6277,692.6533],[-24.32022,16.61279,550.8763],[-24.31442,16.58132,631.4901],[-24.32022,16.55481,316.3199],[-24.32601,16.51257,127.7502],[-24.3247,16.48265,2.2931],[-24.31534,16.52041,392.2769],[-24.28637,16.57075,122.2487],[-24.27233,16.58723,292.2944],[-24.23331,16.60212,95.2694],[-24.19197,16.59247,22.5748],[-24.11474,16.55927,113.3832],[-24.0441,16.55988,129.3045],[-24.03283,16.5624,141.9568],[-24.03283,16.59683,0.0],[-24.03742,16.593,0.0],[-24.04796,16.59882,39.8043],[-24.06753,16.61392,0.0]]]}
,"properties": {"ISO3166-1-Alpha-3": "CPV","country": "Cape Verde","fill": "#F0F","name": "Ribeira Brava","area_km2": 230.3844,"hist_schema_id": "Elevation0-9000","hist_area_km2": {"0": 29.0517,"25": 8.8581,"50": 9.1021,"75": 9.0412,"100": 8.6757,"125": 9.6106,"150": 11.866,"175": 14.081,"200": 13.7153,"225": 12.3538,"250": 11.3785,"275": 10.6876,"300": 9.9562,"325": 8.5541,"350": 8.2086,"375": 6.319,"400": 5.7908,"425": 5.0999,"450": 4.5106,"475": 4.9171,"500": 4.348,"525": 3.9416,"550": 3.332,"575": 2.7022,"600": 2.5804,"625": 2.4787,"650": 2.0723,"675": 2.0317,"700": 1.5644,"725": 0.833,"750": 0.6501,"775": 0.4063,"800": 0.4266,"825": 0.3047,"850": 0.1828,"875": 0.1828,"900": 0.1422,"925": 0.1219,"950": 0.0609,"975": 0.0609,"1000": 0.0813,"1025": 0.0609,"1050": 0.0406}}}