{"type":"Feature","properties":{"GID_1":"CPV.8_1","GID_0":"CPV","country":"CaboVerde","province":"RibeiraBrava","VARNAME_1":"NA","NL_NAME_1":"NA","TYPE_1":"Concelho","ENGTYPE_1":"County","CC_1":"NA","HASC_1":"CV.RB","ISO_1":"NA","name":"Ribeira_Brava.province"},
"geometry":{"type": "MultiPolygon","coordinates": [[[[-24.3191,16.484,10.8088],[-24.3174,16.4799,0.0],[-24.3151,16.479,0.0],[-24.316,16.4835,3.3635],[-24.3043,16.4851,0.0],[-24.3068,16.4854,1.3134],[-24.3049,16.4901,0.5963],[-24.3079,16.4915,13.4747],[-24.3085,16.494,3.2516],[-24.306,16.5024,34.6932],[-24.3032,16.5037,3.2351],[-24.3043,16.5093,24.3577],[-24.3026,16.5121,9.1295],[-24.299,16.5126,2.4674],[-24.2951,16.5185,1.9144],[-24.2957,16.5238,7.0054],[-24.2932,16.5304,1.3723],[-24.291,16.5321,0.7525],[-24.2924,16.5362,0.4753],[-24.2907,16.5401,4.8316],[-24.2888,16.5426,11.9981],[-24.2829,16.5432,0.0],[-24.2835,16.5543,0.0],[-24.2807,16.5565,3.119],[-24.281,16.5599,12.3934],[-24.2787,16.5632,16.6822],[-24.2718,16.5654,0.0],[-24.2654,16.574,0.0],[-24.2657,16.5763,0.2971],[-24.2601,16.581,32.5561],[-24.2576,16.5799,0.0],[-24.246,16.5807,2.9735],[-24.2407,16.5876,2.471],[-24.2357,16.5899,1.1556],[-24.2313,16.5943,8.1899],[-24.229,16.5924,8.1392],[-24.2224,16.594,28.1359],[-24.2165,16.5929,0.0],[-24.2088,16.5943,21.1843],[-24.1996,16.5899,0.0],[-24.194,16.5921,24.3119],[-24.1904,16.5896,0.0],[-24.1843,16.5918,0.4721],[-24.1782,16.5893,0.0],[-24.1771,16.5907,3.0106],[-24.169,16.5912,3.768],[-24.153199999999998,16.5785,0.0],[-24.146,16.5757,12.9572],[-24.1413,16.5757,9.1078],[-24.1357,16.5729,30.0],[-24.1346,16.5707,3.7822],[-24.1326,16.5726,0.0],[-24.1324,16.5701,0.0],[-24.1285,16.5721,62.7791],[-24.1215,16.5613,3.7891],[-24.116,16.5582,10.1652],[-24.1179,16.556,0.0],[-24.1143,16.554,2.9162],[-24.1101,16.554,7.0954],[-24.1093,16.5521,9.8176],[-24.1051,16.5518,0.0],[-24.1038,16.5543,25.479],[-24.101,16.5549,10.3948],[-24.0987,16.5526,3.8576],[-24.0951,16.5529,6.0227],[-24.0937,16.5515,0.0],[-24.0915,16.5557,4.6783],[-24.0871,16.5557,11.753],[-24.0849,16.5551,0.0],[-24.0843,16.5532,0.0],[-24.0826,16.554,18.8438],[-24.0812,16.551,0.6151],[-24.0788,16.5501,0.0],[-24.0682,16.5504,0.0],[-24.0601,16.5529,0.0],[-24.0565,16.5549,0.0],[-24.0554,16.5579,0.0],[-24.0532,16.5579,9.7732],[-24.0496,16.5549,0.0],[-24.0415,16.5568,1.8883],[-24.0379,16.5543,16.44],[-24.0368,16.5496,0.9683],[-24.0329,16.5515,0.0],[-24.028199999999998,16.5513,19.7556],[-24.0224,16.5485,0.0],[-24.0149,16.5535,12.1515],[-24.0149,16.5576,50.9879],[-24.0082,16.566,0.0],[-24.0071,16.5718,1.1717],[-24.0101,16.5757,0.0],[-24.0126,16.576,0.0],[-24.0146,16.5799,7.6167],[-24.0165,16.5799,23.0995],[-24.0168,16.5818,0.0],[-24.0213,16.5807,51.8078],[-24.0229,16.586,0.0],[-24.0263,16.5843,7.3335],[-24.0301,16.5857,0.0],[-24.0351,16.584,0.0],[-24.0382,16.5929,0.0],[-24.0415,16.5932,12.8834],[-24.0421,16.5993,11.1738],[-24.046,16.6035,4.2443],[-24.0496,16.6032,19.3538],[-24.0568,16.6063,0.0],[-24.0568,16.6082,0.0],[-24.0601,16.6079,4.714],[-24.0621,16.6104,0.0],[-24.0671,16.6099,16.8607],[-24.071,16.6121,0.0],[-24.079,16.6132,1.0613],[-24.0826,16.6124,2.5879],[-24.0851,16.6146,2.3097],[-24.0979,16.6162,0.0],[-24.1129,16.6151,6.1663],[-24.1199,16.619,0.0],[-24.1224,16.6187,19.0264],[-24.1232,16.6213,0.0],[-24.1293,16.6218,3.0789],[-24.134,16.6182,16.2446],[-24.1382,16.6121,7.4076],[-24.1462,16.6118,61.2543],[-24.1524,16.6149,0.0],[-24.1585,16.6146,28.0366],[-24.1701,16.6215,2.7965],[-24.1771,16.6315,0.0],[-24.1787,16.6304,14.0355],[-24.1843,16.6313,15.2304],[-24.1899,16.636,6.0686],[-24.1985,16.6396,0.0],[-24.1996,16.6371,2.234],[-24.204,16.6374,0.0],[-24.214,16.6435,1.7412],[-24.2154,16.6462,0.9437],[-24.2221,16.6449,5.1592],[-24.2299,16.6476,0.0],[-24.2285,16.6446,3.074],[-24.2318,16.6437,3.1928],[-24.2363,16.6387,4.9318],[-24.2499,16.6376,0.0],[-24.2504,16.6362,1.9923],[-24.2621,16.6401,1.6308],[-24.2663,16.6379,6.2231],[-24.2674,16.6387,6.2231],[-24.2724,16.6313,1.8309],[-24.2735,16.6326,0.0],[-24.278199999999998,16.631,3.0882],[-24.2857,16.636,30.33],[-24.2868,16.6443,7.9263],[-24.2904,16.6462,0.0],[-24.2943,16.6449,36.4605],[-24.2985,16.6468,2.5567],[-24.3026,16.6571,0.0],[-24.3071,16.6571,18.8724],[-24.3068,16.6599,0.0],[-24.3157,16.6699,5.0124],[-24.3229,16.6732,5.1818],[-24.3329,16.6735,16.9577],[-24.3346,16.676,5.5426],[-24.3343,16.6801,1.1408],[-24.3429,16.6821,0.0],[-24.3501,16.6754,44.0064],[-24.3507,16.6726,76.5628],[-24.3529,16.6715,196.3027],[-24.3543,16.6726,0.0],[-24.3576,16.6704,0.0],[-24.3623,16.6606,103.8912],[-24.3549,16.6446,620.1144],[-24.35,16.6402,590.0077],[-24.3599,16.6255,1013.5125],[-24.358,16.6199,1027.6472],[-24.3494,16.6113,783.8675],[-24.3346,16.6101,772.7886],[-24.3242,16.6046,604.045],[-24.3149,16.5947,657.231],[-24.3039,16.5627,630.6201],[-24.3026,16.5264,69.7561],[-24.3082,16.519,284.5258],[-24.3191,16.484,10.8088]]]]}}