{"type": "Feature","id": "5044","bbox": [-24.38343,14.86957,-24.29577,14.95485],"geometry": {"type": "Polygon","coordinates": [[[-24.29654,14.91755,373.5293],[-24.29577,14.93049,302.7966],[-24.30148,14.95485,356.1683],[-24.33793,14.95313,2484.0425],[-24.37404,14.94492,1753.0284],[-24.37862,14.92732,1753.1946],[-24.38343,14.90807,1669.5348],[-24.37381,14.88561,1194.7146],[-24.35295,14.86957,823.9311],[-24.32087,14.87277,832.3875],[-24.29821,14.89545,609.7459],[-24.3015,14.90648,790.8625],[-24.29654,14.91755,373.5293]]]}
,"properties": {"ISO3166-1-Alpha-3": "CPV","country": "Cape Verde","fill": "#FF0","name": "Santa Catarina do Fogo","area_km2": 70.86792,"hist_schema_id": "Elevation0-9000","hist_area_km2": {"300": 0.06146,"325": 0.30728,"350": 0.22534,"375": 0.55311,"400": 0.43022,"425": 0.16389,"450": 0.55312,"475": 0.30729,"500": 0.43021,"525": 0.36874,"550": 0.10243,"575": 0.32779,"600": 0.22534,"625": 0.36874,"650": 0.38926,"675": 0.36877,"700": 0.38923,"725": 0.32782,"750": 0.71712,"775": 0.73763,"800": 1.39334,"825": 1.53671,"850": 1.31135,"875": 1.14747,"900": 1.27035,"925": 1.04499,"950": 1.45474,"975": 0.96302,"1000": 1.02448,"1025": 1.18837,"1050": 1.12693,"1075": 1.1679,"1100": 1.18841,"1125": 1.22937,"1150": 1.65962,"1175": 0.88102,"1200": 1.02448,"1225": 0.96301,"1250": 1.04493,"1275": 0.88103,"1300": 0.84006,"1325": 0.94248,"1350": 1.04494,"1375": 1.22932,"1400": 0.92198,"1425": 0.79906,"1450": 0.98345,"1475": 0.94244,"1500": 0.881,"1525": 0.86049,"1550": 0.79904,"1575": 0.75807,"1600": 0.98342,"1625": 0.98342,"1650": 1.06535,"1675": 0.73757,"1700": 1.06536,"1725": 0.92195,"1750": 2.4789,"1775": 3.87197,"1800": 2.74519,"1825": 1.74135,"1850": 1.14725,"1875": 1.04483,"1900": 0.88094,"1925": 1.02434,"1950": 0.69654,"1975": 0.59412,"2000": 0.59412,"2025": 0.43022,"2050": 0.49168,"2075": 0.38925,"2100": 0.38925,"2125": 0.47119,"2150": 0.49167,"2175": 0.32779,"2200": 0.28681,"2225": 0.38924,"2250": 0.3073,"2275": 0.43022,"2300": 0.20487,"2325": 0.24584,"2350": 0.12291,"2375": 0.12291,"2400": 0.06145,"2425": 0.18436,"2450": 0.06145,"2475": 0.12291,"2500": 0.06146,"2525": 0.04097,"2550": 0.08194,"2575": 0.10242,"2600": 0.12291,"2625": 0.08194,"2650": 0.04097,"2675": 0.14339,"2700": 0.10242,"2725": 0.08194,"2750": 0.04097}}}