{"type":"Feature","properties":{"GID_1":"CPV.13_1","GID_0":"CPV","country":"CaboVerde","province":"SantaCatarinadoFogo","VARNAME_1":"NA","NL_NAME_1":"NA","TYPE_1":"Concelho","ENGTYPE_1":"County","CC_1":"NA","HASC_1":"CV.CT","ISO_1":"NA","name":"Santa_Catarinado_Fogo.province"},
"geometry":{"type": "MultiPolygon","coordinates": [[[[-24.3494,14.9623,1919.1913],[-24.3611,14.9573,1811.7107],[-24.3721,14.9437,1750.6987],[-24.3822,14.9265,1943.2546],[-24.3818,14.9138,1989.9961],[-24.3695,14.8997,1574.5748],[-24.3431,14.8909,1228.8855],[-24.3145,14.9028,1101.123],[-24.2916,14.9327,175.9286],[-24.2849,14.9371,43.9515],[-24.2849,14.941,21.0965],[-24.2857,14.9449,1.932],[-24.2876,14.9457,8.0543],[-24.2899,14.9559,0.9799],[-24.3146,14.9555,919.4139],[-24.3316,14.9525,2097.313],[-24.3405,14.954,2506.5991],[-24.3494,14.9623,1919.1913]]]]}}