{"type":"Feature","properties":{"ISO3166-1-Alpha-3":"CPV","country":"Cape Verde","fill":"#00F","id":"5042","name":"São Filipe"},
"geometry":{"type": "Polygon","coordinates": [[[-24.37404,14.94492,1753.0284],[-24.40688,14.99089,1207.0765],[-24.42969,15.02502,0.0],[-24.46459,15.00772,0.0],[-24.48892,14.99055,0.0],[-24.50674,14.96918,0.0],[-24.52062,14.94526,0.0],[-24.52623,14.92471,0.0],[-24.52038,14.90396,0.0],[-24.50658,14.88496,0.0],[-24.44909,14.83808,0.0],[-24.41503,14.82087,71.1152],[-24.37654,14.81599,123.9659],[-24.33446,14.83185,223.0457],[-24.29955,14.86302,301.3094],[-24.29284,14.87287,316.2618],[-24.29328,14.88434,457.3524],[-24.29821,14.89545,609.7459],[-24.32087,14.87277,832.3875],[-24.35295,14.86957,823.9311],[-24.37381,14.88561,1194.7146],[-24.38343,14.90807,1669.5348],[-24.37862,14.92732,1753.1946],[-24.37404,14.94492,1753.0284]]]}}