{"type": "Feature","bbox": [-24.5049,14.8124,-24.2774,15.0304],"geometry": {"type": "MultiPolygon","coordinates": [[[[-24.4011,15.0304,34.9193],[-24.4135,15.0251,91.6932],[-24.4251,15.0279,0.0],[-24.429,15.0232,1.3706],[-24.4329,15.0221,0.0],[-24.4354,15.0232,0.0],[-24.4357,15.0185,2.9649],[-24.4399,15.0154,23.687],[-24.4479,15.0138,0.0],[-24.454,15.0104,0.0],[-24.4557,15.0051,2.9763],[-24.4607,15.0026,0.0],[-24.4618,14.9996,5.5632],[-24.4693,14.9971,0.0],[-24.471,14.994,0.0],[-24.4735,14.9937,0.0],[-24.4724,14.9913,18.8655],[-24.4793,14.9865,0.0],[-24.4804,14.9824,0.0],[-24.4868,14.9801,0.0],[-24.4874,14.9762,0.0],[-24.4893,14.9749,0.0],[-24.4876,14.9699,4.8144],[-24.4915,14.9668,0.0],[-24.4904,14.9646,0.0],[-24.4918,14.9593,17.3468],[-24.499,14.9482,0.0],[-24.4982,14.9465,46.7223],[-24.5007,14.9404,0.0],[-24.5015,14.9279,21.1054],[-24.5049,14.9215,0.0],[-24.5046,14.9193,0.0],[-24.5024,14.9199,30.5829],[-24.5015,14.9176,5.9538],[-24.5021,14.9107,16.6963],[-24.5007,14.906,0.0],[-24.5021,14.8915,4.1737],[-24.4971,14.8821,0.0],[-24.4826,14.876,31.6934],[-24.471,14.8663,0.0],[-24.4668,14.8568,0.0],[-24.4568,14.851,28.1869],[-24.4504,14.8501,74.5474],[-24.441,14.8379,0.0],[-24.4368,14.8368,0.0],[-24.4329,14.8329,20.6414],[-24.4299,14.8271,16.6228],[-24.426,14.8263,91.7714],[-24.4226,14.8221,4.1538],[-24.4174,14.8215,5.3962],[-24.4137,14.8168,0.0],[-24.4057,14.8176,38.3724],[-24.4007,14.8135,0.0],[-24.384,14.8151,17.4988],[-24.3832,14.8137,0.0],[-24.3812,14.8149,30.8586],[-24.3762,14.8126,5.6742],[-24.3682,14.8124,26.4517],[-24.3526,14.8168,0.0],[-24.346,14.8171,0.0],[-24.3354,14.8243,26.3265],[-24.3285,14.8274,35.1441],[-24.3254,14.8265,0.0],[-24.3251,14.8296,0.0],[-24.3193,14.8354,0.0],[-24.3163,14.8368,0.0],[-24.3113,14.8363,0.389],[-24.2999,14.8457,0.0],[-24.2918,14.854,0.0],[-24.2913,14.8579,0.0],[-24.284,14.8638,0.0],[-24.2774,14.8843,1.8525],[-24.2793,14.8907,3.19],[-24.2793,14.9024,0.0],[-24.2818,14.9068,2.5665],[-24.2804,14.9126,8.6056],[-24.2821,14.9182,0.0],[-24.2818,14.926,0.0],[-24.2851,14.9318,33.6265],[-24.2849,14.9371,43.9515],[-24.2916,14.9327,175.9286],[-24.3145,14.9028,1101.123],[-24.3431,14.8909,1228.8855],[-24.3695,14.8997,1574.5748],[-24.3818,14.9138,1989.9961],[-24.3822,14.9265,1943.2546],[-24.3721,14.9437,1750.6987],[-24.3611,14.9573,1811.7107],[-24.3494,14.9623,1919.1913],[-24.3598,14.9756,1657.7852],[-24.3606,14.9889,1619.5116],[-24.3732,14.9949,1834.535],[-24.4011,15.0304,34.9193]]]]}
,"properties": {"GID_1": "CPV.16_1","GID_0": "CPV","country": "CaboVerde","province": "SãoFilipe","VARNAME_1": "NA","NL_NAME_1": "NA","TYPE_1": "Concelho","ENGTYPE_1": "County","CC_1": "NA","HASC_1": "CV.FP","ISO_1": "NA","name": "São_Filipe.province","area_km2": 339.7163,"hist_schema_id": "Elevation0-9000","hist_area_km2": {"0": 4.9375,"25": 4.3438,"50": 3.4217,"75": 5.0198,"100": 6.3723,"125": 7.1922,"150": 7.9913,"175": 7.9915,"200": 8.77,"225": 8.0529,"250": 8.1759,"275": 8.5445,"300": 8.4625,"325": 8.6879,"350": 7.9499,"375": 7.7657,"400": 8.1138,"425": 7.2943,"450": 7.2943,"475": 7.3147,"500": 6.5156,"525": 7.3965,"550": 6.5156,"575": 6.1263,"600": 6.2491,"625": 5.8802,"650": 5.0403,"675": 5.8187,"700": 5.0197,"725": 4.8968,"750": 5.5524,"775": 4.6303,"800": 4.8968,"825": 4.6098,"850": 4.3845,"875": 4.8352,"900": 4.323,"925": 3.8107,"950": 3.7902,"975": 3.5442,"1000": 3.5033,"1025": 3.3804,"1050": 3.1756,"1075": 3.2574,"1100": 3.1345,"1125": 2.8887,"1150": 2.52,"1175": 2.3559,"1200": 2.4379,"1225": 2.274,"1250": 2.2534,"1275": 1.6389,"1300": 2.0281,"1325": 1.6183,"1350": 1.9667,"1375": 1.5364,"1400": 1.7208,"1425": 1.3111,"1450": 1.2291,"1475": 1.3725,"1500": 1.1882,"1525": 1.0857,"1550": 1.2291,"1575": 0.8604,"1600": 0.9833,"1625": 1.6796,"1650": 1.9459,"1675": 1.4748,"1700": 1.3929,"1725": 3.2364,"1750": 6.7189,"1775": 1.8845,"1800": 1.4544,"1825": 1.2495,"1850": 0.7989,"1875": 1.0652,"1900": 1.0037,"1925": 0.8603,"1950": 0.8603,"1975": 0.7169,"2000": 0.9423,"2025": 0.7374,"2050": 0.8398,"2075": 0.6965,"2100": 0.7989,"2125": 0.8808,"2150": 0.6555,"2175": 0.5326,"2200": 0.7989,"2225": 0.594,"2250": 0.7169,"2275": 0.6145,"2300": 0.6555,"2325": 0.6964,"2350": 0.5121,"2375": 0.4097,"2400": 0.6555,"2425": 0.3687,"2450": 0.3892,"2475": 0.635,"2500": 0.2253,"2525": 0.2458,"2550": 0.2663,"2575": 0.2458,"2600": 0.3482,"2625": 0.2663,"2650": 0.1024,"2675": 0.0614}}}