{"type": "Feature","bbox": [-22.966,15.9735,-22.6568,16.2313],"geometry": {"type": "MultiPolygon","coordinates": [[[[-22.9593,16.026,1.3324],[-22.9607,16.0254,0.8215],[-22.9576,16.0215,0.0],[-22.9587,16.0237,1.6462],[-22.9593,16.026,1.3324]]],
[[[-22.7887,16.2271,5.1305],[-22.7879,16.2313,0.0],[-22.7926,16.2299,0.0],[-22.7921,16.2243,1.3277],[-22.7949,16.2251,0.0],[-22.796,16.224,0.0],[-22.7938,16.2201,4.4415],[-22.7899,16.221,3.1523],[-22.7893,16.219,4.795],[-22.791,16.2176,6.8384],[-22.7943,16.2182,6.3383],[-22.8007,16.2115,5.0645],[-22.8071,16.2082,9.1705],[-22.8332,16.2029,9.5942],[-22.8443,16.2038,0.0],[-22.8529,16.2024,0.0],[-22.869,16.2035,5.5282],[-22.886,16.2088,0.0],[-22.8929,16.2143,1.7667],[-22.8921,16.2171,0.3247],[-22.8935,16.2185,1.1572],[-22.8971,16.2176,2.3617],[-22.9046,16.2232,1.6948],[-22.9096,16.2246,4.1756],[-22.9079,16.231,0.2638],[-22.9135,16.231,0.0],[-22.9196,16.2274,0.0],[-22.9207,16.221,0.0],[-22.9179,16.2199,14.1449],[-22.9174,16.2151,20.5303],[-22.9199,16.209,2.0591],[-22.9107,16.2046,1.4732],[-22.9107,16.201,0.0],[-22.9149,16.1988,0.0],[-22.9168,16.1957,0.3396],[-22.9154,16.1879,2.0562],[-22.9182,16.1893,0.0],[-22.9204,16.1874,0.0],[-22.9176,16.1854,1.2786],[-22.9199,16.1818,0.8349],[-22.919,16.1793,3.2748],[-22.9212,16.1785,5.1205],[-22.921,16.1757,0.0],[-22.9154,16.1738,2.4041],[-22.914,16.1665,0.0],[-22.9107,16.1649,1.9531],[-22.9051,16.1504,1.1019],[-22.9001,16.1524,5.5265],[-22.8999,16.1474,6.1332],[-22.9054,16.1446,4.1544],[-22.9088,16.1354,0.0],[-22.9062,16.1299,0.8607],[-22.9065,16.124,2.9638],[-22.9104,16.1213,0.0],[-22.9112,16.1179,0.8851],[-22.934,16.0987,1.5202],[-22.9387,16.0976,3.3574],[-22.9426,16.0987,2.3243],[-22.9474,16.096,0.0],[-22.959,16.0832,2.4715],[-22.9549,16.0732,3.2948],[-22.9599,16.0674,0.0],[-22.9607,16.0635,4.0828],[-22.9593,16.0571,0.9381],[-22.961,16.0499,1.302],[-22.966,16.0415,0.0],[-22.961,16.0346,1.3748],[-22.9612,16.0296,1.0914],[-22.9582,16.0329,1.21],[-22.9546,16.0296,1.363],[-22.956,16.0218,0.2193],[-22.9493,16.0135,0.0],[-22.9249,16.0026,0.5094],[-22.9088,15.9988,0.5254],[-22.906,16.0012,1.6157],[-22.8976,15.9979,1.0686],[-22.8904,15.9924,8.1177],[-22.8899,15.9865,0.3678],[-22.8857,15.9829,0.0],[-22.8846,15.9779,0.6171],[-22.8782,15.9735,0.0],[-22.8546,15.9776,2.289],[-22.8207,15.9779,4.0233],[-22.8135,15.9765,0.7651],[-22.8104,15.9776,1.7184],[-22.8054,15.9743,1.6071],[-22.7979,15.976,7.2002],[-22.7976,15.9788,14.2424],[-22.791,15.9865,4.3912],[-22.7815,15.9924,0.1265],[-22.7815,15.9943,0.1787],[-22.7793,15.996,1.68],[-22.7629,15.9993,0.0],[-22.7574,16.0104,1.7026],[-22.7535,16.0085,0.0],[-22.7365,16.0187,0.4593],[-22.7304,16.0204,0.0],[-22.7282,16.0229,0.7937],[-22.7243,16.0215,0.0],[-22.7204,16.0246,0.0],[-22.7179,16.024,0.0],[-22.715699999999998,16.0265,0.6762],[-22.7165,16.0282,1.5283],[-22.7118,16.0335,1.3036],[-22.7032,16.0357,2.3926],[-22.6971,16.0421,1.7346],[-22.694,16.0393,0.0],[-22.6885,16.0413,0.0],[-22.6818,16.0496,5.8002],[-22.6801,16.0626,3.4268],[-22.6735,16.071,5.0021],[-22.6724,16.0768,10.7841],[-22.6688,16.0793,0.0],[-22.6688,16.0838,0.0],[-22.6649,16.0843,0.0],[-22.669,16.0924,0.0],[-22.669,16.0976,0.0],[-22.6712,16.099,24.4857],[-22.6704,16.106,0.0],[-22.6743,16.109,8.2624],[-22.6746,16.114,0.0],[-22.6776,16.1201,4.6803],[-22.6768,16.1254,0.0],[-22.6738,16.1293,2.3549],[-22.6676,16.1274,0.0],[-22.6724,16.1324,2.4691],[-22.6715,16.1357,4.1031],[-22.674,16.1432,3.9545],[-22.6724,16.1465,0.0],[-22.6749,16.1457,1.6719],[-22.7049,16.1768,0.3965],[-22.7082,16.1851,0.0],[-22.7049,16.1924,0.0],[-22.7082,16.1929,0.3434],[-22.7096,16.1963,0.7051],[-22.7038,16.1996,0.0],[-22.7038,16.2021,0.0],[-22.7074,16.2032,0.0],[-22.7082,16.201,1.0545],[-22.7104,16.201,0.6534],[-22.7104,16.2035,0.0],[-22.7135,16.2032,0.0],[-22.7115,16.2049,0.0],[-22.7124,16.206,0.0],[-22.714,16.2049,0.0],[-22.7187,16.2062,0.0],[-22.7232,16.204,0.0],[-22.7265,16.2051,2.0692],[-22.7285,16.2093,0.0],[-22.7354,16.2088,0.6092],[-22.7376,16.2112,0.0],[-22.7401,16.2101,0.0],[-22.7479,16.211,0.0],[-22.7612,16.2182,0.0],[-22.7693,16.2201,7.0846],[-22.771,16.2221,0.0],[-22.781,16.2204,3.9526],[-22.7835,16.2232,0.0],[-22.7813,16.2268,0.3529],[-22.7835,16.2276,0.0],[-22.7832,16.2263,0.6383],[-22.7849,16.2257,0.7755],[-22.7846,16.2296,0.0],[-22.7876,16.2254,1.3284],[-22.7887,16.2271,5.1305]]],
[[[-22.9368,16.1765,0.0],[-22.9379,16.1765,0.0],[-22.9371,16.1729,0.0],[-22.9321,16.1699,4.1851],[-22.9315,16.1663,0.6739],[-22.9254,16.1635,0.0],[-22.9235,16.1646,0.3985],[-22.9237,16.1685,0.0],[-22.9265,16.1724,0.0],[-22.9368,16.1765,0.0]]],
[[[-22.6668,16.1474,0.0],[-22.6699,16.1465,0.0],[-22.666,16.1443,0.0],[-22.6651,16.1457,0.0],[-22.6668,16.1474,0.0]]],
[[[-22.6582,16.1537,0.1462],[-22.6612,16.1543,0.0],[-22.6637,16.1535,0.0],[-22.6568,16.1526,0.1462],[-22.6582,16.1537,0.1462]]],
[[[-22.6971,16.1976,0.0],[-22.6987,16.1982,0.0],[-22.699,16.1957,0.0],[-22.6974,16.1957,0.0],[-22.6971,16.1976,0.0]]]]}
,"properties": {"GID_1": "CPV.1_1","GID_0": "CPV","country": "CaboVerde","province": "BoaVista","VARNAME_1": "NA","NL_NAME_1": "NA","TYPE_1": "Concelho","ENGTYPE_1": "County","CC_1": "NA","HASC_1": "CV.BV","ISO_1": "CV-BV","name": "Boa_Vista.province","area_km2": 631.5556,"hist_schema_id": "Elevation0-9000","hist_area_km2": {"0": 84.2348,"25": 146.4899,"50": 202.2726,"75": 104.0906,"100": 43.4867,"125": 18.3101,"150": 10.2857,"175": 8.2084,"200": 5.6014,"225": 3.646,"250": 2.8517,"275": 1.1203,"300": 0.6723,"325": 0.2037,"350": 0.0815}}}