{"type":"Feature","properties":{"ISO3166-1-Alpha-3":"CPV","country":"Cape Verde","fill":"#F0F","id":"5055","name":"Boa Vista"},
"geometry":{"type": "Polygon","coordinates": [[[-22.68212,16.11359,41.7252],[-22.6787,16.15176,0.0],[-22.68248,16.16865,0.0],[-22.69957,16.17569,0.0],[-22.70377,16.17959,0.0],[-22.70983,16.19864,3.03],[-22.71386,16.20576,0.0],[-22.72387,16.21263,0.0],[-22.73469,16.21686,0.0],[-22.79381,16.23135,0.0],[-22.81168,16.22842,0.0],[-22.81933,16.21296,0.0],[-22.82942,16.20401,0.0],[-22.85253,16.20661,0.0],[-22.87792,16.21491,0.0],[-22.89509,16.22285,0.0],[-22.90722,16.23143,0.0],[-22.91161,16.23672,0.0],[-22.9156,16.24396,0.0],[-22.92443,16.21296,0.0],[-22.91356,16.12556,0.0],[-22.93261,16.10741,0.0],[-22.94742,16.10224,0.0],[-22.95775,16.08902,0.0],[-22.96325,16.07119,0.0],[-22.96398,16.05219,0.0],[-22.95775,16.03083,1.4431],[-22.94555,16.01968,0.1902],[-22.90929,16.00373,3.9814],[-22.89778,16.00047,11.4301],[-22.88366,15.98871,28.3492],[-22.87389,15.98387,31.2404],[-22.86368,15.98237,36.2459],[-22.80614,15.98591,8.722],[-22.78759,15.9916,0.7044],[-22.75109,16.01057,0.9952],[-22.69644,16.05292,24.8929],[-22.6798,16.06322,3.4268],[-22.67711,16.07266,29.5668],[-22.67561,16.08202,35.1378],[-22.67252,16.08633,15.926],[-22.66657,16.09146,0.0],[-22.67081,16.10224,0.0],[-22.67837,16.11188,26.5128],[-22.68212,16.11359,41.7252]]]}}