{"type": "Feature","id": "5061","bbox": [-25.24535,17.08578,-25.02587,17.1966],"geometry": {"type": "Polygon","coordinates": [[[-25.02587,17.14492,306.9604],[-25.02628,17.16771,178.3014],[-25.03018,17.17548,60.3009],[-25.03954,17.18244,0.0],[-25.05394,17.18618,0.0],[-25.0795,17.18537,322.8933],[-25.09105,17.19302,112.795],[-25.10261,17.1966,0.0],[-25.11864,17.19286,0.0],[-25.17955,17.16437,0.0],[-25.20271,17.15876,0.0],[-25.22631,17.14468,0.0],[-25.24535,17.1367,0.0],[-25.19106,17.10761,1180.1224],[-25.15831,17.08578,1345.1718],[-25.11267,17.10364,1227.2051],[-25.07298,17.11356,1454.6179],[-25.05412,17.12745,751.9232],[-25.03825,17.13837,209.3646],[-25.02587,17.14492,306.9604]]]}
,"properties": {"ISO3166-1-Alpha-3": "CPV","country": "Cape Verde","fill": "#00F","name": "Ribeira Grande","area_km2": 161.8384,"hist_schema_id": "Elevation0-9000","hist_area_km2": {"0": 8.083,"25": 1.3977,"50": 1.7421,"75": 2.2283,"100": 2.4512,"125": 3.1197,"150": 3.6465,"175": 4.2137,"200": 4.5582,"225": 4.3556,"250": 4.6798,"275": 4.7405,"300": 4.8621,"325": 4.3557,"350": 4.5583,"375": 5.0041,"400": 5.0446,"425": 4.3558,"450": 4.4166,"475": 4.8016,"500": 4.3559,"525": 4.7206,"550": 3.8291,"575": 4.3965,"600": 3.6064,"625": 3.3632,"650": 3.4645,"675": 3.3228,"700": 2.6947,"725": 2.6339,"750": 2.1882,"775": 2.4111,"800": 2.0059,"825": 1.6007,"850": 1.8033,"875": 1.5197,"900": 1.5602,"925": 1.6412,"950": 1.702,"975": 1.4386,"1000": 1.3171,"1025": 1.155,"1050": 1.2563,"1075": 1.1347,"1100": 1.2968,"1125": 0.9321,"1150": 1.2158,"1175": 0.9321,"1200": 1.1956,"1225": 1.4185,"1250": 1.4185,"1275": 1.4185,"1300": 0.9119,"1325": 1.4185,"1350": 1.5198,"1375": 1.2969,"1400": 1.2564,"1425": 0.9524,"1450": 0.6687,"1475": 0.7093,"1500": 0.385,"1525": 0.2837,"1550": 0.385,"1575": 0.1621,"1600": 0.1013,"1625": 0.1013,"1650": 0.0405,"1675": 0.0811}}}