{"type": "Feature","bbox": [-25.2299,17.0803,-25.0201,17.2054],"geometry": {"type": "MultiPolygon","coordinates": [[[[-25.0201,17.1726,0.0],[-25.0226,17.1774,0.0],[-25.0299,17.1785,1.725],[-25.0329,17.1815,0.0],[-25.0346,17.1785,27.8927],[-25.044,17.1785,65.2465],[-25.0676,17.1863,8.5343],[-25.0812,17.1957,0.0],[-25.0854,17.1965,0.0],[-25.0876,17.204,0.0],[-25.0932,17.2054,0.0],[-25.0965,17.1979,6.2968],[-25.1021,17.1946,0.0],[-25.1082,17.1946,14.4767],[-25.1165,17.1915,101.3813],[-25.1293,17.1849,54.8173],[-25.1354,17.1838,0.0],[-25.1382,17.1801,32.8547],[-25.1449,17.1771,0.0],[-25.1618,17.1768,0.0],[-25.1637,17.1743,0.0],[-25.1685,17.1726,0.0],[-25.1671,17.1696,22.9226],[-25.1707,17.1671,0.0],[-25.171,17.1632,55.9083],[-25.1735,17.161,19.3484],[-25.1907,17.1565,181.0057],[-25.1971,17.1579,0.0],[-25.1999,17.161,1.644],[-25.2046,17.1563,0.0],[-25.2024,17.1532,4.8636],[-25.2057,17.1501,175.469],[-25.2138,17.1537,96.5507],[-25.2143,17.1471,235.0858],[-25.2174,17.144,0.0],[-25.2274,17.1435,0.0],[-25.2271,17.1343,0.0],[-25.2299,17.1321,0.0],[-25.2044,17.1053,1060.7094],[-25.197,17.1008,1208.3064],[-25.1811,17.0968,1626.9792],[-25.1788,17.0928,1646.3923],[-25.1793,17.0831,1644.5795],[-25.1771,17.0803,1659.9519],[-25.1725,17.0803,1766.1716],[-25.1486,17.0934,1465.9058],[-25.1418,17.0945,1287.8188],[-25.1122,17.0928,1196.8934],[-25.1008,17.0951,1293.217],[-25.0632,17.1162,1432.1384],[-25.0541,17.1304,904.326],[-25.0376,17.1492,869.9384],[-25.0257,17.156,651.7659],[-25.0223,17.1697,186.2594],[-25.0201,17.1726,0.0]]]]}
,"properties": {"GID_1": "CPV.9_1","GID_0": "CPV","country": "CaboVerde","province": "RibeiraGrande","VARNAME_1": "RibeiraGrandedeSantoAntão","NL_NAME_1": "NA","TYPE_1": "Concelho","ENGTYPE_1": "County","CC_1": "NA","HASC_1": "CV.RG","ISO_1": "NA","name": "Ribeira_Grande.province","area_km2": 167.5134,"hist_schema_id": "Elevation0-9000","hist_area_km2": {"0": 2.6131,"25": 1.9243,"50": 2.1675,"75": 2.4309,"100": 2.6537,"125": 3.4033,"150": 3.8085,"175": 4.3149,"200": 4.5581,"225": 4.3961,"250": 4.7,"275": 4.781,"300": 4.8013,"325": 4.3962,"350": 4.4773,"375": 4.8825,"400": 4.923,"425": 4.2951,"450": 4.2951,"475": 4.8016,"500": 4.2546,"525": 4.599,"550": 3.6873,"575": 4.3559,"600": 3.5051,"625": 3.2214,"650": 3.4037,"675": 3.262,"700": 2.6744,"725": 2.6339,"750": 2.168,"775": 2.4516,"800": 2.0261,"825": 1.6209,"850": 1.8236,"875": 1.5804,"900": 1.5196,"925": 1.6818,"950": 1.7425,"975": 1.5197,"1000": 1.4589,"1025": 1.2563,"1050": 1.3981,"1075": 1.1955,"1100": 1.4792,"1125": 1.0334,"1150": 1.3577,"1175": 1.155,"1200": 1.6009,"1225": 2.3101,"1250": 2.4114,"1275": 2.1277,"1300": 2.1075,"1325": 1.9656,"1350": 2.1278,"1375": 1.5604,"1400": 1.4996,"1425": 1.2361,"1450": 0.8511,"1475": 0.8511,"1500": 0.5066,"1525": 0.4256,"1550": 0.5674,"1575": 0.3242,"1600": 0.5269,"1625": 0.4458,"1650": 0.3445,"1675": 0.4053,"1700": 0.2635,"1725": 0.2432,"1750": 0.0811,"1775": 0.0203,"1800": 0.0203}}}