{"type": "Feature","id": "5048","bbox": [-23.6266,15.04598,-23.48466,15.17021],"geometry": {"type": "Polygon","coordinates": [[[-23.48466,15.06404,86.9061],[-23.51138,15.11302,51.8764],[-23.51203,15.11612,43.1291],[-23.51081,15.12421,4.6254],[-23.51138,15.12735,0.0],[-23.51407,15.128,0.9285],[-23.52294,15.1267,5.8897],[-23.52571,15.12735,17.2351],[-23.52725,15.12739,7.9199],[-23.53441,15.133,55.7428],[-23.54076,15.13906,89.0353],[-23.5393,15.14037,71.6329],[-23.54499,15.14313,52.8836],[-23.54747,15.14594,86.4652],[-23.54914,15.14936,86.9319],[-23.55236,15.154,0.0],[-23.56737,15.15209,67.8799],[-23.58422,15.16242,58.7835],[-23.5916,15.17021,119.5785],[-23.62055,15.13678,280.3953],[-23.6266,15.13141,335.6848],[-23.62055,15.12349,156.5901],[-23.61834,15.10578,250.2311],[-23.60726,15.10356,272.0134],[-23.58069,15.09803,250.2536],[-23.57848,15.08806,367.6131],[-23.57998,15.08156,212.8995],[-23.56416,15.07459,194.9774],[-23.54958,15.07884,119.4066],[-23.52643,15.05927,272.9218],[-23.51425,15.05263,141.0916],[-23.50429,15.04598,100.5073],[-23.491,15.05152,43.0081],[-23.48466,15.06404,86.9061]]]}
,"properties": {"ISO3166-1-Alpha-3": "CPV","country": "Cape Verde","fill": "#FF0","name": "Santa Cruz","area_km2": 98.19126,"hist_schema_id": "Elevation0-9000","hist_area_km2": {"0": 2.27187,"25": 7.36855,"50": 8.18742,"75": 11.21708,"100": 12.34284,"125": 10.76688,"150": 9.14986,"175": 8.55639,"200": 7.38965,"225": 5.32232,"250": 5.0357,"275": 3.76644,"300": 2.66105,"325": 1.71939,"350": 1.41236,"375": 0.69595,"400": 0.2661,"425": 0.06141}}}