{"type": "Feature","bbox": [-23.6304,15.0454,-23.4915,15.1807],"geometry": {"type": "MultiPolygon","coordinates": [[[[-23.63,15.1169,304.3902],[-23.6284,15.1153,342.1457],[-23.5971,15.1153,351.8214],[-23.5918,15.1113,220.4381],[-23.5918,15.106,143.0249],[-23.5991,15.1053,165.2564],[-23.6086,15.1,230.2466],[-23.6016,15.0895,375.2825],[-23.5882,15.0914,275.3651],[-23.5772,15.0962,184.4741],[-23.5734,15.0914,380.282],[-23.5662,15.0871,162.3111],[-23.5643,15.0794,243.6164],[-23.5645,15.0681,152.6029],[-23.5599,15.0687,210.6136],[-23.5532,15.0601,302.9992],[-23.5419,15.0547,158.3881],[-23.5379,15.0461,428.7052],[-23.5299,15.0454,447.2147],[-23.5219,15.0481,176.1148],[-23.5093,15.0581,100.5358],[-23.5026,15.0694,67.6148],[-23.4953,15.088,19.9904],[-23.4915,15.0932,1.7427],[-23.4935,15.0951,11.5137],[-23.4921,15.0988,0.0],[-23.4943,15.0996,2.9574],[-23.4946,15.1021,0.0],[-23.4968,15.1049,0.0],[-23.4996,15.1038,7.4413],[-23.4976,15.1065,1.3018],[-23.5018,15.1154,0.0],[-23.5012,15.124,0.2857],[-23.5024,15.1254,0.2857],[-23.5074,15.1249,2.5098],[-23.5121,15.126,0.372],[-23.5154,15.129,0.0],[-23.5212,15.1282,2.5067],[-23.5229,15.1299,0.0],[-23.5265,15.1296,4.5511],[-23.5268,15.1335,0.0],[-23.529,15.1357,0.0],[-23.528199999999998,15.1379,3.3358],[-23.5263,15.1382,0.0],[-23.5254,15.1415,4.1809],[-23.5265,15.1454,0.0],[-23.5307,15.146,0.0],[-23.5318,15.1513,0.0],[-23.534,15.149,0.206],[-23.5376,15.1499,2.4918],[-23.5401,15.1479,27.9937],[-23.5379,15.1524,0.0],[-23.5449,15.1565,0.7083],[-23.5479,15.1565,0.0],[-23.551,15.1532,19.8305],[-23.5574,15.1515,1.1188],[-23.5568,15.1576,0.0],[-23.5588,15.1579,0.0],[-23.5585,15.156,0.0],[-23.5635,15.1557,0.0],[-23.5749,15.1624,13.9625],[-23.5737,15.1649,0.0],[-23.5715,15.1649,0.0],[-23.5704,15.169,0.0],[-23.5724,15.1713,0.0],[-23.5768,15.1707,22.6947],[-23.5771,15.176,2.4125],[-23.5743,15.1776,0.0],[-23.5776,15.179,0.0],[-23.5799,15.176,0.8685],[-23.5821,15.1799,0.0],[-23.586,15.1807,0.0],[-23.6144,15.1572,132.5662],[-23.6291,15.1559,126.3777],[-23.63,15.1546,128.2231],[-23.6231,15.1532,273.9002],[-23.6218,15.1479,161.154],[-23.6251,15.1339,259.1236],[-23.6211,15.1326,312.2856],[-23.6211,15.1286,262.6104],[-23.6224,15.1259,265.6987],[-23.6277,15.1253,202.0935],[-23.6304,15.1233,198.2743],[-23.63,15.1169,304.3902]]]]}
,"properties": {"GID_1": "CPV.14_1","GID_0": "CPV","country": "CaboVerde","province": "SantaCruz","VARNAME_1": "NA","NL_NAME_1": "NA","TYPE_1": "Concelho","ENGTYPE_1": "County","CC_1": "NA","HASC_1": "CV.CZ","ISO_1": "NA","name": "Santa_Cruz.province","area_km2": 115.17823,"hist_schema_id": "Elevation0-9000","hist_area_km2": {"0": 5.87397,"25": 10.5407,"50": 10.41802,"75": 12.09674,"100": 12.81333,"125": 11.85156,"150": 10.33697,"175": 9.47725,"200": 8.18783,"225": 5.75204,"250": 5.01519,"275": 3.78693,"300": 3.00917,"325": 2.27226,"350": 1.51479,"375": 1.00309,"400": 0.51181,"425": 0.34805,"450": 0.20474,"475": 0.06143,"500": 0.06143,"525": 0.04095}}}