{"type":"Feature","properties":{"ISO3166-1-Alpha-3":"CPV","country":"Cape Verde","fill":"#F0F","id":"5050","name":"São Lourenço dos Órgãos"},
"geometry":{"type": "Polygon","coordinates": [[[-23.56416,15.07459,194.9774],[-23.57998,15.08156,212.8995],[-23.5818,15.07367,278.8636],[-23.58512,15.05595,316.4062],[-23.60505,15.04155,507.7309],[-23.61204,15.04092,604.2704],[-23.61169,15.02495,831.1997],[-23.59619,15.01166,672.995],[-23.57626,15.02273,447.5297],[-23.56187,15.03823,302.0993],[-23.54304,15.05374,174.5012],[-23.52643,15.05927,272.9218],[-23.54958,15.07884,119.4066],[-23.56416,15.07459,194.9774]]]}}