{"type":"Feature","properties":{"GID_1":"CPV.17_1","GID_0":"CPV","country":"CaboVerde","province":"SãoLourençodosÓrgãos","VARNAME_1":"NA","NL_NAME_1":"NA","TYPE_1":"Concelho","ENGTYPE_1":"County","CC_1":"NA","HASC_1":"CV.LO","ISO_1":"NA","name":"São_Lourençodos_Órgãos.province"},
"geometry":{"type": "MultiPolygon","coordinates": [[[[-23.6271,15.0392,913.1984],[-23.6124,15.0374,741.3811],[-23.5985,15.0401,621.2129],[-23.5732,15.0554,249.3103],[-23.5645,15.0681,152.6029],[-23.5643,15.0794,243.6164],[-23.5662,15.0871,162.3111],[-23.5734,15.0914,380.282],[-23.5772,15.0962,184.4741],[-23.5882,15.0914,275.3651],[-23.6016,15.0895,375.2825],[-23.6086,15.1,230.2466],[-23.6144,15.0967,301.9272],[-23.6191,15.0847,380.2899],[-23.6191,15.078,400.9628],[-23.6224,15.072,429.8525],[-23.6425,15.0574,1074.7936],[-23.6317,15.0408,939.1971],[-23.6271,15.0392,913.1984]]]]}}