{"type": "Feature","id": "5054","bbox": [-23.25817,15.1186,-23.11046,15.33275],"geometry": {"type": "Polygon","coordinates": [[[-23.1278,15.31167,5.046],[-23.13952,15.31778,0.0],[-23.16194,15.31257,-0.6089],[-23.17626,15.31916,-1.3466],[-23.16881,15.32534,0.0],[-23.17626,15.33275,-0.1541],[-23.17894,15.32795,0.7719],[-23.18126,15.32575,1.3176],[-23.18985,15.31916,0.0],[-23.18956,15.32949,0.0],[-23.18985,15.33275,0.0],[-23.20328,15.3249,0.0],[-23.21715,15.31916,0.0],[-23.21496,15.31582,0.0],[-23.21516,15.31444,0.0],[-23.21447,15.31354,0.0],[-23.20979,15.31167,0.0],[-23.22411,15.28669,0.0],[-23.24572,15.27106,0.0],[-23.25133,15.25642,0.0],[-23.23485,15.25483,0.0],[-23.23087,15.24396,0.0],[-23.23717,15.231019999999999,0.0],[-23.25133,15.22289,0.0],[-23.24328,15.21133,0.0],[-23.2473,15.1992,0.0],[-23.25512,15.18684,0.0],[-23.25817,15.17451,0.0],[-23.25206,15.16181,0.0],[-23.24063,15.15005,0.0],[-23.21715,15.13353,0.0],[-23.19595,15.12206,0.0],[-23.18273,15.1186,0.0],[-23.16881,15.11986,4.0357],[-23.16364,15.12372,11.5413],[-23.15884,15.13557,23.045],[-23.15514,15.14037,42.1681],[-23.14867,15.14277,31.8557],[-23.1328,15.14472,36.5543],[-23.1278,15.14663,28.797],[-23.11193,15.17194,68.9168],[-23.11046,15.19941,81.054],[-23.12157,15.25642,44.1659],[-23.12051,15.28335,36.0178],[-23.1219,15.29914,21.3393],[-23.1278,15.31167,5.046]]]}
,"properties": {"ISO3166-1-Alpha-3": "CPV","country": "Cape Verde","fill": "#F0F","name": "Maio","area_km2": 269.3962,"hist_schema_id": "Elevation0-9000","hist_area_km2": {"0": 112.0787,"25": 47.5471,"50": 42.7834,"75": 28.6661,"100": 15.0177,"125": 9.3501,"150": 5.6468,"175": 3.8055,"200": 2.23,"225": 0.982,"250": 0.5728,"275": 0.3069,"300": 0.1432,"325": 0.1432,"350": 0.0818,"375": 0.0409}}}