{"type":"Feature","properties":{"GID_1":"CPV.3_1","GID_0":"CPV","country":"CaboVerde","province":"Maio","VARNAME_1":"NA","NL_NAME_1":"NA","TYPE_1":"Concelho","ENGTYPE_1":"County","CC_1":"NA","HASC_1":"CV.MA","ISO_1":"NA","name":"Maio.province"},
"geometry":{"type": "MultiPolygon","coordinates": [[[[-23.1799,15.3396,0.0],[-23.1804,15.3343,0.0],[-23.1818,15.3354,0.0],[-23.1829,15.334,0.0],[-23.1801,15.3307,0.0],[-23.1818,15.3307,0.0],[-23.1843,15.3271,0.0],[-23.1882,15.3268,0.1163],[-23.1885,15.3249,0.4305],[-23.1826,15.3162,-0.3631],[-23.1829,15.314,-0.2668],[-23.1874,15.3107,0.0285],[-23.1907,15.3107,-0.5117],[-23.1921,15.3129,-0.1606],[-23.1943,15.3124,0.7049],[-23.1965,15.3146,0.1618],[-23.2018,15.3135,0.2485],[-23.1957,15.306,-1.0303],[-23.1982,15.3026,0.0],[-23.1974,15.301,-1.0],[-23.1993,15.3007,0.0],[-23.201,15.2924,-0.024],[-23.2193,15.2768,3.5978],[-23.2265,15.2788,0.0],[-23.2279,15.2754,0.0],[-23.2246,15.2746,1.7481],[-23.2237,15.2729,2.2775],[-23.2271,15.2674,0.0],[-23.2304,15.2679,0.0],[-23.231,15.2668,0.0],[-23.231,15.2582,0.0],[-23.2204,15.2574,1.1621],[-23.215699999999998,15.2476,0.0196],[-23.216,15.2429,0.0],[-23.214,15.2421,1.7979],[-23.2162,15.2418,0.1577],[-23.2171,15.2388,0.0],[-23.2162,15.2229,0.5118],[-23.2226,15.2204,1.6049],[-23.2262,15.2207,0.0],[-23.2279,15.2188,0.0],[-23.2271,15.2118,0.0],[-23.2293,15.2035,0.0],[-23.2293,15.1921,0.1931],[-23.2304,15.1887,1.9399],[-23.2329,15.1871,0.7666],[-23.2335,15.1835,0.0],[-23.2315,15.1782,0.9066],[-23.2329,15.1629,-0.831],[-23.2301,15.1557,-0.914],[-23.2296,15.1563,-0.914],[-23.2315,15.1632,-0.831],[-23.229,15.1624,-1.0602],[-23.2235,15.156,-0.7342],[-23.2221,15.1563,-0.1457],[-23.216,15.149,-0.4958],[-23.215699999999998,15.1446,-0.5893],[-23.2207,15.1449,0.1014],[-23.221,15.1424,0.0],[-23.2179,15.1426,0.4359],[-23.2135,15.139,5.9897],[-23.2135,15.136,2.4202],[-23.2079,15.1307,7.5426],[-23.2062,15.126,0.0],[-23.2032,15.1265,2.2389],[-23.199,15.1243,0.0],[-23.1943,15.124,-0.1465],[-23.1943,15.1226,0.0],[-23.1857,15.119,0.0179],[-23.1726,15.1201,0.0123],[-23.1651,15.1171,2.7703],[-23.1571,15.1163,0.0],[-23.1485,15.1188,0.0],[-23.1454,15.1265,0.124],[-23.144,15.1265,0.0],[-23.1454,15.1301,-0.1015],[-23.1432,15.1265,0.0],[-23.1413,15.1279,1.4612],[-23.1382,15.1271,0.2102],[-23.1385,15.1282,1.7311],[-23.1349,15.1287,0.0],[-23.1349,15.131,3.0951],[-23.131,15.1329,0.4246],[-23.129,15.1362,5.6279],[-23.1243,15.1365,0.0],[-23.1215,15.1393,0.0],[-23.1182,15.1382,0.0],[-23.1143,15.1429,4.8748],[-23.111,15.1426,0.2186],[-23.1085,15.1451,0.0],[-23.1085,15.1485,1.2137],[-23.1063,15.1485,0.0],[-23.1021,15.1521,9.1441],[-23.1026,15.1543,13.7411],[-23.101,15.1538,0.0],[-23.0987,15.1565,0.0],[-23.0951,15.164,0.0],[-23.0974,15.1668,1.8326],[-23.0946,15.1649,0.0],[-23.0876,15.1674,0.0],[-23.090699999999998,15.1768,0.0],[-23.0874,15.179,1.1056],[-23.0924,15.1896,0.0],[-23.0924,15.1924,0.0],[-23.0885,15.1965,0.0],[-23.0896,15.1971,0.6877],[-23.089,15.2001,0.2363],[-23.0915,15.2024,0.0],[-23.0937,15.2143,0.4292],[-23.0918,15.2154,0.0],[-23.0946,15.2213,0.0018],[-23.0935,15.2249,1.5886],[-23.0951,15.2268,2.5065],[-23.0932,15.2304,0.6635],[-23.0954,15.2351,1.938],[-23.0949,15.2379,0.0],[-23.0974,15.2429,0.0],[-23.0996,15.2432,0.9907],[-23.0974,15.244,0.7049],[-23.0971,15.2485,0.0],[-23.0985,15.2529,0.0],[-23.1007,15.2546,0.0],[-23.1015,15.2593,0.3947],[-23.1035,15.2599,2.7718],[-23.1043,15.2651,0.9864],[-23.1082,15.2657,1.7557],[-23.1051,15.2687,0.0],[-23.1043,15.2726,3.7271],[-23.1007,15.2732,0.0],[-23.0999,15.2771,0.0],[-23.101,15.2788,0.0],[-23.0999,15.2793,0.0],[-23.1029,15.2829,0.0],[-23.1051,15.2899,0.0],[-23.1071,15.2907,0.7565],[-23.1046,15.2924,0.0],[-23.1057,15.2962,2.3003],[-23.1046,15.2976,0.0],[-23.1063,15.2985,1.0128],[-23.109,15.3068,0.0],[-23.1124,15.3085,1.5753],[-23.1115,15.3101,0.0],[-23.1143,15.3104,1.4921],[-23.1149,15.3146,0.0],[-23.119,15.3162,0.0],[-23.1218,15.3135,1.392],[-23.124,15.3162,0.0],[-23.1274,15.3113,5.046],[-23.1343,15.3082,1.5573],[-23.1446,15.3126,0.0],[-23.1526,15.3138,0.0],[-23.1535,15.316,0.0],[-23.1596,15.3199,0.8192],[-23.1588,15.329,0.0],[-23.1599,15.3335,0.0],[-23.1632,15.329,0.0],[-23.1621,15.3257,1.2439],[-23.164,15.321,-0.1269],[-23.1749,15.3218,-0.9314],[-23.1776,15.3296,-0.1988],[-23.176,15.3329,-0.1541],[-23.1782,15.3343,0.0],[-23.1776,15.3379,0.0],[-23.1799,15.3396,0.0]]],
[[[-23.1351,15.3129,0.0],[-23.1371,15.3132,0.0],[-23.1376,15.3124,0.0],[-23.1343,15.3118,0.0],[-23.1351,15.3129,0.0]]],
[[[-23.1568,15.3563,0.0],[-23.1582,15.3574,0.0],[-23.1596,15.3543,0.0],[-23.1582,15.354,0.0],[-23.1568,15.3563,0.0]]]]}}