{"type":"Feature","properties":{"ISO3166-1-Alpha-3":"CPV","country":"Cape Verde","fill":"#00F","id":"5051","name":"São Domingos"},
"geometry":{"type": "Polygon","coordinates": [[[-23.45678,15.02367,44.9686],[-23.46068,15.03095,25.2925],[-23.46361,15.03315,33.3034],[-23.46654,15.03425,60.8659],[-23.47045,15.03799,51.5586],[-23.48466,15.06404,86.9061],[-23.491,15.05152,43.0081],[-23.50429,15.04598,100.5073],[-23.51425,15.05263,141.0916],[-23.52643,15.05927,272.9218],[-23.54304,15.05374,174.5012],[-23.56187,15.03823,302.0993],[-23.57626,15.02273,447.5297],[-23.59619,15.01166,672.995],[-23.58401,14.99505,456.3493],[-23.58069,14.96847,294.9545],[-23.56408,14.96072,200.3156],[-23.5364,14.96626,132.9131],[-23.51093,14.98287,234.4165],[-23.491,14.98619,86.0997],[-23.47147,14.97372,42.8251],[-23.45466,14.98591,63.1458],[-23.44782,14.99575,24.1361],[-23.4431,15.01069,28.1915],[-23.44835,15.0124,14.1376],[-23.45189,15.01512,24.187],[-23.45458,15.01895,35.0812],[-23.45678,15.02367,44.9686]]]}}