{"type":"Feature","properties":{"GID_1":"CPV.15_1","GID_0":"CPV","country":"CaboVerde","province":"SãoDomingos","VARNAME_1":"NA","NL_NAME_1":"NA","TYPE_1":"Concelho","ENGTYPE_1":"County","CC_1":"NA","HASC_1":"CV.SD","ISO_1":"NA","name":"São_Domingos.province"},
"geometry":{"type": "MultiPolygon","coordinates": [[[[-23.4623,14.9735,3.1429],[-23.456,14.9729,0.9748],[-23.4532,14.9771,52.3609],[-23.4487,14.9782,0.0],[-23.446,14.981,0.0],[-23.4443,14.9857,3.0067],[-23.4407,14.9868,1.2382],[-23.4338,14.9799,0.0],[-23.434,14.9815,0.0],[-23.4296,14.9862,0.0],[-23.4324,14.9926,0.0],[-23.4293,14.999,0.0],[-23.4329,14.9979,1.4683],[-23.4343,15.0004,0.0],[-23.4382,15.0012,2.1022],[-23.4285,15.0021,1.0401],[-23.4304,15.0046,0.0],[-23.4349,15.0046,3.156],[-23.4363,15.006,0.3051],[-23.4346,15.0121,2.9935],[-23.4301,15.0112,0.0],[-23.431,15.0154,1.0129],[-23.4299,15.016,0.0],[-23.4326,15.0179,0.4499],[-23.4324,15.0204,0.0],[-23.4346,15.0226,0.0],[-23.4368,15.0224,0.0],[-23.4387,15.019,3.2656],[-23.4418,15.0199,2.8937],[-23.4399,15.0243,0.189],[-23.4418,15.0271,0.4761],[-23.4421,15.0349,0.0],[-23.4407,15.0376,0.0],[-23.4438,15.0382,8.5984],[-23.4421,15.0413,0.0],[-23.444,15.0421,0.0],[-23.446,15.0399,3.6095],[-23.4496,15.0401,4.9394],[-23.4538,15.036,7.2853],[-23.4532,15.0404,8.8639],[-23.4571,15.0404,7.6264],[-23.4551,15.0418,0.0],[-23.4557,15.0435,6.3994],[-23.4493,15.044,10.867],[-23.4468,15.0426,0.0],[-23.4476,15.0476,2.8125],[-23.4504,15.0507,0.0],[-23.4543,15.0504,10.5317],[-23.459,15.0538,0.0],[-23.4646,15.0524,4.9045],[-23.4626,15.0554,0.7725],[-23.4626,15.0596,0.0],[-23.4665,15.0601,4.7846],[-23.4646,15.0576,7.8862],[-23.4668,15.0582,12.3309],[-23.469,15.0626,0.0],[-23.4699,15.0585,15.4392],[-23.4715,15.0585,15.4392],[-23.4707,15.061,3.1769],[-23.4732,15.0607,1.9737],[-23.4751,15.0629,0.879],[-23.4721,15.066,2.0456],[-23.4746,15.0676,2.1421],[-23.4746,15.0701,0.9046],[-23.4762,15.0701,8.2841],[-23.476,15.0732,0.0],[-23.4801,15.0732,7.4212],[-23.4793,15.0751,0.0],[-23.4813,15.0754,5.0663],[-23.4801,15.081,2.7359],[-23.4843,15.0835,9.7006],[-23.4837,15.0863,0.0],[-23.4851,15.0885,0.0],[-23.4912,15.0885,2.962],[-23.4901,15.0924,0.0],[-23.4912,15.0932,1.7427],[-23.4953,15.088,19.9904],[-23.5026,15.0694,67.6148],[-23.5093,15.0581,100.5358],[-23.5219,15.0481,176.1148],[-23.5299,15.0454,447.2147],[-23.5379,15.0461,428.7052],[-23.5419,15.0547,158.3881],[-23.5532,15.0601,302.9992],[-23.5599,15.0687,210.6136],[-23.5645,15.0681,152.6029],[-23.5732,15.0554,249.3103],[-23.5985,15.0401,621.2129],[-23.6124,15.0374,741.3811],[-23.6271,15.0392,913.1984],[-23.6257,15.0348,1015.3035],[-23.6198,15.0295,874.5607],[-23.6171,15.0221,786.9081],[-23.6184,15.0055,650.7487],[-23.6238,14.9975,624.3077],[-23.6218,14.9915,538.3781],[-23.6005,14.9789,387.9586],[-23.5925,14.9762,352.5986],[-23.5845,14.9762,340.8915],[-23.5785,14.9802,357.7587],[-23.5599,14.9869,290.9182],[-23.5399,14.9882,219.3505],[-23.5286,14.9922,327.3997],[-23.516,14.9929,240.3617],[-23.4913,14.9835,83.2723],[-23.472,14.9802,48.298],[-23.4623,14.9735,3.1429]]]]}}