{"type":"Feature","properties":{"ISO3166-1-Alpha-3":"CPV","country":"Cape Verde","fill":"#F0F","id":"5043","name":"Mosteiros"},
"geometry":{"type": "Polygon","coordinates": [[[-24.30148,14.95485,356.1683],[-24.30724,14.97944,662.6827],[-24.32014,15.01301,509.5647],[-24.32921,15.02871,253.4308],[-24.34325,15.04072,34.2534],[-24.36486,15.0454,297.4465],[-24.38557,15.04352,0.0],[-24.40343,15.03803,0.0],[-24.42969,15.02502,0.0],[-24.40688,14.99089,1207.0765],[-24.37404,14.94492,1753.0284],[-24.33793,14.95313,2484.0425],[-24.30148,14.95485,356.1683]]]}}