{"type": "Feature","bbox": [-24.4011,14.9525,-24.2862,15.0524],"geometry": {"type": "MultiPolygon","coordinates": [[[[-24.2899,14.9559,0.9799],[-24.2899,14.959,1.1728],[-24.2874,14.9607,1.1249],[-24.2882,14.9649,6.3338],[-24.2862,14.9724,0.0],[-24.2907,14.9788,22.5848],[-24.2926,14.994,0.0],[-24.2946,14.9968,0.0],[-24.2993,14.9985,117.6389],[-24.2974,15.0035,3.6121],[-24.3004,15.0163,0.0],[-24.3026,15.019,0.0],[-24.3088,15.0215,1.964],[-24.314,15.0332,3.1934],[-24.3276,15.0357,0.0],[-24.3293,15.0371,0.0],[-24.3299,15.0421,1.4571],[-24.3357,15.0454,1.4494],[-24.3429,15.0457,0.8993],[-24.3435,15.0471,0.0],[-24.3512,15.0493,0.0],[-24.3632,15.0485,75.3939],[-24.3674,15.0499,125.8976],[-24.3685,15.0524,0.0],[-24.3768,15.0488,0.0],[-24.3782,15.0463,39.395],[-24.381,15.046,0.0],[-24.3874,15.0401,18.8178],[-24.3943,15.0365,25.3109],[-24.3971,15.0374,0.0],[-24.3951,15.0329,162.8799],[-24.4011,15.0304,34.9193],[-24.3732,14.9949,1834.535],[-24.3606,14.9889,1619.5116],[-24.3598,14.9756,1657.7852],[-24.3509,14.9637,1886.9338],[-24.3405,14.954,2506.5991],[-24.3316,14.9525,2097.313],[-24.3146,14.9555,919.4139],[-24.2899,14.9559,0.9799]]]]}
,"properties": {"GID_1": "CPV.4_1","GID_0": "CPV","country": "CaboVerde","province": "Mosteiros","VARNAME_1": "NA","NL_NAME_1": "NA","TYPE_1": "Concelho","ENGTYPE_1": "County","CC_1": "NA","HASC_1": "CV.MO","ISO_1": "CV-MO","name": "Mosteiros.province","area_km2": 81.46755,"hist_schema_id": "Elevation0-9000","hist_area_km2": {"0": 2.29343,"25": 2.23205,"50": 1.35155,"75": 1.43354,"100": 1.02399,"125": 1.16731,"150": 1.20828,"175": 0.79865,"200": 1.47446,"225": 1.41302,"250": 1.49494,"275": 1.41303,"300": 1.26962,"325": 1.43347,"350": 1.43348,"375": 1.45401,"400": 1.35156,"425": 1.24919,"450": 1.1263,"475": 1.24917,"500": 1.47445,"525": 1.29014,"550": 1.18776,"575": 1.20826,"600": 1.10584,"625": 1.16728,"650": 0.92153,"675": 1.10587,"700": 1.08542,"725": 1.18775,"750": 0.8601,"775": 1.20827,"800": 0.98302,"825": 0.94203,"850": 0.90107,"875": 1.06496,"900": 1.10589,"925": 0.88062,"950": 0.81917,"975": 0.75773,"1000": 0.8192,"1025": 0.75776,"1050": 0.83967,"1075": 0.79874,"1100": 0.81919,"1125": 0.71681,"1150": 0.51198,"1175": 0.75775,"1200": 1.00356,"1225": 0.55297,"1250": 0.86017,"1275": 0.90115,"1300": 0.61442,"1325": 0.6144,"1350": 0.9626,"1375": 0.65537,"1400": 0.71681,"1425": 0.51201,"1450": 0.8602,"1475": 0.7373,"1500": 0.69633,"1525": 0.94213,"1550": 0.98308,"1575": 1.12645,"1600": 1.35173,"1625": 1.88425,"1650": 1.82286,"1675": 1.106,"1700": 0.8807,"1725": 0.67589,"1750": 0.65542,"1775": 0.63492,"1800": 0.553,"1825": 0.53253,"1850": 0.40963,"1875": 0.40963,"1900": 0.38915,"1925": 0.34819,"1950": 0.30723,"1975": 0.26627,"2000": 0.2253,"2025": 0.12289,"2050": 0.1229,"2075": 0.04097,"2100": 0.1229,"2125": 0.04097,"2150": 0.10242,"2175": 0.06145,"2200": 0.08194,"2225": 0.02048,"2250": 0.08194,"2300": 0.08194,"2325": 0.02048,"2350": 0.04097,"2375": 0.04097,"2400": 0.02048,"2425": 0.04097,"2450": 0.02048,"2475": 0.02048,"2500": 0.02048,"2525": 0.02048}}}