{"type":"Feature","properties":{"ISO3166-1-Alpha-3":"CPV","country":"Cape Verde","fill":"#F0F","id":"5046","name":"Santa Catarina"},
"geometry":{"type": "Polygon","coordinates": [[[-23.64048,15.11907,303.8073],[-23.64823,15.12128,269.5671],[-23.65045,15.13678,445.5304],[-23.66817,15.14896,298.7722],[-23.68699,15.16668,567.658],[-23.68588,15.1844,627.1365],[-23.72464,15.17997,763.7424],[-23.75453,15.18329,471.6955],[-23.77013,15.18399,0.0],[-23.77619,15.17723,0.0],[-23.78576,15.17451,0.0],[-23.77294,15.14045,0.0],[-23.77208,15.12735,0.0],[-23.77562,15.11823,0.0],[-23.78987,15.09382,0.0],[-23.79259,15.08576,0.0],[-23.79011,15.0777,0.0],[-23.78628,15.07241,0.0],[-23.7823,15.06855,0.0],[-23.77953,15.06464,1.2136],[-23.77269,15.04169,0.0],[-23.77208,15.03799,0.0],[-23.75829,15.03132,0.0],[-23.74205,15.02635,0.0],[-23.7307,15.0185,0.0],[-23.73054,14.98583,0.0],[-23.71508,14.96845,0.0],[-23.69806,14.98619,218.1832],[-23.67924,14.99394,352.9861],[-23.67038,15.00723,425.8907],[-23.64934,15.00944,335.389],[-23.64159,15.01387,560.1437],[-23.63938,15.02827,709.3549],[-23.62941,15.03934,978.147],[-23.63703,15.04908,1185.0948],[-23.64432,15.06305,850.4938],[-23.64796,15.08188,544.9313],[-23.64189,15.08734,352.5633],[-23.61834,15.10578,250.2311],[-23.62055,15.12349,156.5901],[-23.6266,15.13141,335.6848],[-23.64048,15.11907,303.8073]]]}}