{"type":"Feature","properties":{"GID_1":"CPV.12_1","GID_0":"CPV","country":"CaboVerde","province":"SantaCatarina","VARNAME_1":"NA","NL_NAME_1":"NA","TYPE_1":"Concelho","ENGTYPE_1":"County","CC_1":"NA","HASC_1":"CV.CT","ISO_1":"NA","name":"Santa_Catarina.province"},
"geometry":{"type": "MultiPolygon","coordinates": [[[[-23.6604,15.0574,984.1143],[-23.6655,15.0679,729.097],[-23.668,15.0806,386.4766],[-23.6578,15.0896,444.6365],[-23.6642,15.0943,554.5859],[-23.6642,15.1019,519.8648],[-23.6578,15.107,431.2316],[-23.6472,15.107,344.2444],[-23.6361,15.1181,287.092],[-23.63,15.1169,304.3902],[-23.6304,15.1233,198.2743],[-23.6277,15.1253,202.0935],[-23.6224,15.1259,265.6987],[-23.6211,15.1326,312.2856],[-23.6251,15.1339,259.1236],[-23.6218,15.1479,161.154],[-23.6231,15.1532,273.9002],[-23.63,15.1546,128.2231],[-23.645,15.1359,376.1335],[-23.6617,15.1333,440.8681],[-23.663,15.1359,321.5436],[-23.6623,15.1393,241.6462],[-23.655,15.1506,182.6802],[-23.6537,15.1566,224.8752],[-23.6584,15.1645,413.8837],[-23.6703,15.1752,859.8593],[-23.6883,15.1765,726.1133],[-23.6916,15.1792,870.9281],[-23.6936,15.1965,789.5975],[-23.7069,15.1965,355.8541],[-23.7109,15.2005,362.2302],[-23.7129,15.2051,306.9249],[-23.7189,15.2071,294.612],[-23.7222,15.1945,580.1799],[-23.7242,15.1938,579.1774],[-23.7282,15.1945,497.8483],[-23.7329,15.1991,387.1533],[-23.7382,15.2018,396.5792],[-23.7455,15.1985,251.9952],[-23.7579,15.1987,5.0199],[-23.7637,15.1915,67.7396],[-23.7646,15.1854,0.0],[-23.7629,15.1801,13.4874],[-23.7671,15.1774,4.0958],[-23.771,15.1776,0.0],[-23.7643,15.1668,4.5438],[-23.7679,15.1624,41.8821],[-23.7665,15.1601,2.3825],[-23.7668,15.1515,1.0233],[-23.761,15.1499,2.9139],[-23.7626,15.1443,33.128],[-23.7643,15.1438,0.0],[-23.7643,15.1407,0.0],[-23.7604,15.1385,0.0],[-23.7601,15.136,0.0],[-23.7651,15.1287,6.0628],[-23.7701,15.1274,0.0],[-23.7707,15.124,0.0],[-23.7671,15.1238,93.8154],[-23.7668,15.1224,37.9363],[-23.769,15.1196,0.0],[-23.7679,15.1154,73.5905],[-23.7696,15.1154,2.2445],[-23.7712,15.1099,1.1815],[-23.7704,15.0957,0.0],[-23.7785,15.0915,0.0],[-23.7774,15.0888,0.9609],[-23.7785,15.0857,0.0],[-23.7746,15.0793,4.885],[-23.774,15.0743,47.3623],[-23.7771,15.0729,12.5898],[-23.7807,15.0737,2.1609],[-23.7818,15.0713,6.1229],[-23.7785,15.0665,0.0],[-23.7796,15.0626,1.2459],[-23.776,15.0621,0.0],[-23.7751,15.064,10.926],[-23.7732,15.064,13.2534],[-23.7701,15.0604,0.0],[-23.7643,15.0582,0.2752],[-23.7651,15.0543,5.9668],[-23.7637,15.0515,2.6859],[-23.7599,15.0507,5.2286],[-23.7576,15.0454,9.3494],[-23.7543,15.0432,0.0],[-23.754,15.0379,0.0],[-23.7501,15.031,0.0],[-23.7463,15.0313,0.0],[-23.7449,15.0351,7.6622],[-23.7421,15.0363,41.0471],[-23.7371,15.0293,0.0],[-23.734,15.0268,0.0],[-23.7285,15.026,50.1408],[-23.7274,15.0229,0.0],[-23.7196,15.0171,23.0629],[-23.7199,15.0151,0.0],[-23.7149,15.0129,0.0],[-23.7146,15.0087,14.1976],[-23.7182,15.0068,8.9464],[-23.7174,15.0043,0.0],[-23.7149,15.0035,0.0],[-23.7154,15.0001,23.4066],[-23.7187,14.9982,0.0],[-23.7185,14.9968,201.7132],[-23.7213,14.9974,0.0],[-23.7204,14.9926,159.7574],[-23.7251,14.9918,15.2671],[-23.7262,14.9929,0.0],[-23.7265,14.991,15.2671],[-23.7279,14.991,0.0],[-23.7268,14.9857,7.841],[-23.7226,14.9846,11.8318],[-23.7201,14.9804,0.0],[-23.7121,14.9799,33.6178],[-23.6989,14.9969,98.8921],[-23.693,14.9982,221.8516],[-23.691,15.0008,312.5908],[-23.6963,15.0075,153.2681],[-23.6963,15.0108,195.4129],[-23.6956,15.0148,334.6498],[-23.6903,15.0241,305.3856],[-23.691,15.0308,446.1752],[-23.687,15.0361,529.7375],[-23.683,15.0381,525.3593],[-23.6657,15.0381,800.1064],[-23.6623,15.0561,939.5251],[-23.6604,15.0574,984.1143]]]]}}